[
  {
    "name": "INOVAE Skin",
    "address": "1818 Avenue of America",
    "city": "Monroe",
    "state": "LA",
    "zip_code": 99123,
    "phone": "555-555-1234",
    "custom_referral_link": "chris"
  },
  {
    "name": "Dunes Med Spa",
    "address": "4710 Oleander Drive",
    "city": "Myrtle Beach",
    "state": "SC",
    "zip_code": 29577,
    "phone": "843-839-1935",
    "custom_referral_link": "dunesmedspa"
  },
  {
    "name": "Aesthete",
    "address": "1020 108th Ave NE Suite 200 , Unit 23",
    "city": "Bellevue",
    "state": "WA",
    "zip_code": 98004,
    "phone": "4258946282",
    "custom_referral_link": "aesthete"
  },
  {
    "name": "Savanna Boda",
    "address": "613 Arden ln",
    "city": "Northlake",
    "state": "Texas",
    "zip_code": 76247,
    "phone": "9724409997",
    "custom_referral_link": "savannaboda"
  },
  {
    "name": "Skin By Lauryn",
    "address": "952 Edgewood Avenue, Unit B",
    "city": "Atlanta",
    "state": "GA",
    "zip_code": 30307,
    "phone": "404-914-0064",
    "custom_referral_link": "skinbylauryn"
  },
  {
    "name": "Luxe Skin Aesthetics",
    "address": "421 3rd Ave SE",
    "city": "Cullman",
    "state": "Alabama",
    "zip_code": 35055,
    "phone": "2568411690",
    "custom_referral_link": "luxeskinaesthetics"
  },
  {
    "name": "The Luxe Medspa",
    "address": "5041 Dallas Highway, STE 508",
    "city": "Powder Springs",
    "state": "Georgia",
    "zip_code": 30127,
    "phone": "7702037480",
    "custom_referral_link": "theluxemedspa"
  },
  {
    "name": "The Skin Lounge",
    "address": "10 Fairmount Ave",
    "city": "Chatham",
    "state": "New Jersey",
    "zip_code": "07928",
    "phone": "9083092224",
    "custom_referral_link": "theskinlounge"
  },
  {
    "name": "Lotus Skin + Brow",
    "address": "200 Chatillon Rd NE",
    "city": "Rome",
    "state": "Georgia",
    "zip_code": 30161,
    "phone": "7068029898",
    "custom_referral_link": "lotusskinandbrow"
  },
  {
    "name": "Beverly Hills Rejuvenation Center",
    "address": "7322 Jones-Maltsberger Rd Ste 144",
    "city": "San Antonio",
    "state": "TX",
    "zip_code": 78209,
    "phone": "210-774-4655",
    "custom_referral_link": "bhrcmedspa"
  },
  {
    "name": "Casa Bella Aesthetics",
    "address": "18720A Centro Main St.",
    "city": "Shenandoah",
    "state": "TX",
    "zip_code": 77385,
    "phone": "(936) 444-5606",
    "custom_referral_link": "casabellaaesthetics"
  },
  {
    "name": "Next Level Aesthetics",
    "address": "1005 Columbus Ave",
    "city": "Waco",
    "state": "TX",
    "zip_code": 76701,
    "phone": "2546528095",
    "custom_referral_link": "nextlevelaesthetics"
  },
  {
    "name": "Graceful Touch Esthetics",
    "address": "1507 Bay Area Blvd Unit B1 Suite 135",
    "city": "Webster",
    "state": "Tx",
    "zip_code": 77511,
    "phone": "940-923-5191",
    "custom_referral_link": "gracefultouchesthetics"
  },
  {
    "name": "Georgia Skin Specialists",
    "address": "1800 Howell Mill Road NW",
    "city": "Atlanta",
    "state": "GA",
    "zip_code": 30318,
    "phone": "6784634526",
    "custom_referral_link": "georgiaskinspecialists"
  },
  {
    "name": "Pelle Dolce Medical Aesthetics",
    "address": "945 Cromwell Ave   (Suite H)",
    "city": "Rocky Hill",
    "state": "CT",
    "zip_code": "06067",
    "phone": "2034106436",
    "custom_referral_link": "pelledolcemedicalaesthetics"
  },
  {
    "name": "WINK MEDICAL AESTHETICS",
    "address": "2`127 LOHMANS CROSSING ROAD, SUITE 302",
    "city": "LAKEWAY",
    "state": "TEXAS",
    "zip_code": 78734,
    "phone": "512-263-2400",
    "custom_referral_link": "winkmed"
  },
  {
    "name": "AYA Medical Spa",
    "address": "3500 Peachtree Road NE",
    "city": "Atlanta",
    "state": "ga",
    "zip_code": 30326,
    "phone": "404-842-1772",
    "custom_referral_link": "ayamedspa"
  },
  {
    "name": "Luxe Skin Clinic",
    "address": "9910 W Loop 1604 N, 128",
    "city": "San Antonio",
    "state": "TX",
    "zip_code": 78254,
    "phone": "2105446676",
    "custom_referral_link": "luxeskinclinic"
  },
  {
    "name": "Aesthetics of Atlanta and wellness",
    "address": "6160 Peachtree Dunwoody Rd , Suite A105",
    "city": "Atlanta",
    "state": "GA",
    "zip_code": 30328,
    "phone": "6787908354",
    "custom_referral_link": "aestheticsofatlanta"
  },
  {
    "name": "Cosmic Glow Aesthetics",
    "address": "513 W Chocolate Ave. Suite B",
    "city": "Hershey",
    "state": "PA",
    "zip_code": 17033,
    "phone": "7175805866",
    "custom_referral_link": "cosmicglowaesthetics"
  },
  {
    "name": "Neighborhood Wellness Clinic",
    "address": "6051FM 3009 Ste 255",
    "city": "Schertz",
    "state": "TX",
    "zip_code": 78154,
    "phone": null,
    "custom_referral_link": "neighborhoodwellnessclinic"
  },
  {
    "name": "Renew Vitality Clinic",
    "address": "7003 Woodway Dr Suite 302",
    "city": "Woodway",
    "state": "Tx",
    "zip_code": 76712,
    "phone": "2542162343",
    "custom_referral_link": "renewvitalityclinic"
  },
  {
    "name": "Illumatox Aesthetic Studio",
    "address": "W208 Eimmerman Dr.",
    "city": "Kaukauna",
    "state": "WI",
    "zip_code": 54130,
    "phone": "920-585-8115",
    "custom_referral_link": "illumatoxaestheticstudio"
  },
  {
    "name": "The Aesthetic Room by Damore Dentistry LLC",
    "address": "901 ROUTE 168 STE 501",
    "city": "Turnersville",
    "state": "NJ",
    "zip_code": "08012",
    "phone": "8562286688",
    "custom_referral_link": "theaestheticroom"
  },
  {
    "name": "Tox Josh Studios",
    "address": "1804 Williamson Court Suite 203",
    "city": "Brentwood",
    "state": "TN",
    "zip_code": 37027,
    "phone": "6156287671",
    "custom_referral_link": "toxjosh"
  },
  {
    "name": "Duluth Med Spa",
    "address": "2510 Maple Grove Rd",
    "city": "Duluth",
    "state": "MN",
    "zip_code": 55811,
    "phone": "2184811800",
    "custom_referral_link": "duluthmedspa"
  },
  {
    "name": "The Lip Bunny Beauty",
    "address": "484 Highland Ave",
    "city": "Fall River",
    "state": "Massachusetts",
    "zip_code": "02720",
    "phone": "401-865-0795",
    "custom_referral_link": "lipbunnybeauty"
  },
  {
    "name": "Beauty Wise",
    "address": "19054 Stone Oak Pkwy",
    "city": "San Antonio",
    "state": "Tx",
    "zip_code": 78201,
    "phone": "2102909444",
    "custom_referral_link": "beautywise"
  },
  {
    "name": "Dew Skin Studio",
    "address": "10 Exchange St, Suite 301",
    "city": "Charleston",
    "state": "SC",
    "zip_code": 29401,
    "phone": "8439911160",
    "custom_referral_link": "dewskinstudios"
  },
  {
    "name": "Esthetics By Cati",
    "address": "130 South 5th Street",
    "city": "Lewiston",
    "state": "NY",
    "zip_code": 14092,
    "phone": "7169465842",
    "custom_referral_link": "estheticsbycati"
  },
  {
    "name": "Serein Aesthetics",
    "address": "20 Crossroads Road suite 212",
    "city": "Owings Mills",
    "state": "Maryland",
    "zip_code": 21117,
    "phone": "4108241313",
    "custom_referral_link": "sereinaesthetics"
  },
  {
    "name": "The Lip Bunny Beauty",
    "address": "484 Highland Ave",
    "city": "Fall River",
    "state": "MA",
    "zip_code": "02720",
    "phone": "401-865-0795",
    "custom_referral_link": "thelipbunnybeauty"
  },
  {
    "name": "Atlanta Skin Wellness Center",
    "address": "755 Mount Vernon Highway NE, Ste 305",
    "city": "Atlanta",
    "state": "Georgia",
    "zip_code": 30328,
    "phone": "4044464840",
    "custom_referral_link": "atlantaskinwellnesscenter"
  },
  {
    "name": "Dr. Solomon Azouz",
    "address": "7777 Forest Lane building C suite 802",
    "city": "Dallas",
    "state": "TX",
    "zip_code": 75230,
    "phone": "9727028888",
    "custom_referral_link": "drsolomonazouz"
  },
  {
    "name": "AraBella Aeathetics",
    "address": "940 Gainesville Hwy Suite A",
    "city": "Buford",
    "state": "GA",
    "zip_code": 30518,
    "phone": "6787252308",
    "custom_referral_link": "arabellaaesthetics"
  },
  {
    "name": "LehCar Aesthetics",
    "address": "634 Peachtree Pkwy., Suite 201",
    "city": "Cumming",
    "state": "GA",
    "zip_code": 30041,
    "phone": "6787736117",
    "custom_referral_link": "lehcaraesthetics"
  },
  {
    "name": "Spa Bella",
    "address": "321 Wood St",
    "city": "West Monroe",
    "state": "La",
    "zip_code": 71291,
    "phone": "3183482915",
    "custom_referral_link": "spabella"
  },
  {
    "name": "TORA",
    "address": "415 s austin st suite #4",
    "city": "rockport",
    "state": "tx",
    "zip_code": 78382,
    "phone": "3614508029",
    "custom_referral_link": "tora"
  },
  {
    "name": "ROYAL AESTHETICS",
    "address": "15317 LAKE LAMOND RD",
    "city": "CONROE",
    "state": "TX",
    "zip_code": 77384,
    "phone": "7138985846",
    "custom_referral_link": "royalaesthetics"
  },
  {
    "name": "Zaretsky Aesthetics",
    "address": "1250 Wood Branch Park Dr #205",
    "city": "Houston",
    "state": "Texas",
    "zip_code": 77079,
    "phone": "832-295-3050",
    "custom_referral_link": "zaretskyaesthetics"
  },
  {
    "name": "Art of Skin",
    "address": "2897 N Druid Hills Rd.  Ste. 363",
    "city": "Atlanta",
    "state": "Ga",
    "zip_code": 30329,
    "phone": "6786704495",
    "custom_referral_link": "artofskin"
  },
  {
    "name": "Flourish wellness",
    "address": "4728 E Longhorn St",
    "city": "San Tan Valley",
    "state": "AZ",
    "zip_code": 85140,
    "phone": "4807658795",
    "custom_referral_link": "flourishwellness"
  },
  {
    "name": "Modern Looks Med Spa",
    "address": "5975 Roswell Rd. Suite E355",
    "city": "sandy springs",
    "state": "georgia",
    "zip_code": 30328,
    "phone": "4044804015",
    "custom_referral_link": "modernlooksmedspa"
  },
  {
    "name": "Rosalind Michelle Skin Co",
    "address": "4426 Abingdon Dr",
    "city": "Stone Mountain",
    "state": "GA",
    "zip_code": 30083,
    "phone": "4047026477",
    "custom_referral_link": "rosalindmichelleskinco"
  },
  {
    "name": "Nakie Face",
    "address": "7013 East Main Street",
    "city": "Scottsdale",
    "state": "AZ",
    "zip_code": 85251,
    "phone": "4809353433",
    "custom_referral_link": "nakieface"
  },
  {
    "name": "Skin Care By Monik",
    "address": "6615 W Cross Creek Bend Ln",
    "city": "Fulshear",
    "state": "TX",
    "zip_code": 77441,
    "phone": "3467078543",
    "custom_referral_link": "skincarebymonik"
  },
  {
    "name": "Purple Peach Aesthetics",
    "address": "4325 FM 2351 Ste 120",
    "city": "Friendswood",
    "state": "Texas",
    "zip_code": 77511,
    "phone": "8323880508",
    "custom_referral_link": "purplepeachaesthetics"
  },
  {
    "name": "Glow by Gabrielle",
    "address": "1026 Broad Street unit 10",
    "city": "Shrewsbury",
    "state": "New Jersey",
    "zip_code": "07702",
    "phone": "7324259810",
    "custom_referral_link": "glowbygabrielle"
  },
  {
    "name": "The Derm Bar MD",
    "address": "1169 Winding Way Drive",
    "city": "Knoxville",
    "state": "TN",
    "zip_code": 37923,
    "phone": "8655560543",
    "custom_referral_link": "thedermbarmd"
  },
  {
    "name": "Mne Aesthetics",
    "address": "2745 Town Center Blvd N Ste. 134",
    "city": "Sugar Land",
    "state": "Texas",
    "zip_code": 77479,
    "phone": "3463150430",
    "custom_referral_link": "mneaesthetics"
  },
  {
    "name": "The Lash Designory d.b.a Morgan Rackley Skincare",
    "address": "2929-D North Druid Hills Rd NE, Suite 119",
    "city": "Brookhaven",
    "state": "GA",
    "zip_code": 30329,
    "phone": "7708968326",
    "custom_referral_link": "luminousskinatlanta"
  },
  {
    "name": "The Skin Gallery Medspa",
    "address": "19 North Main Street",
    "city": "Kingwood",
    "state": "Texas",
    "zip_code": 77339,
    "phone": "8322178684",
    "custom_referral_link": "theskingallerymedspa"
  },
  {
    "name": "True Skin Oasis",
    "address": "5434 King Avenue",
    "city": "Pennsauken",
    "state": "NJ",
    "zip_code": "08109",
    "phone": "8569243301",
    "custom_referral_link": "trueskinoasis"
  },
  {
    "name": "Poke Me Pretty",
    "address": "20783 N. 83rd Ave, Suite 111",
    "city": "Peoria",
    "state": "AZ",
    "zip_code": 85382,
    "phone": "4806736297",
    "custom_referral_link": "pokemepretty"
  },
  {
    "name": "Allura Medical Esthetics",
    "address": "13 South Angell Street",
    "city": "Providence",
    "state": "Rhode Island",
    "zip_code": "02906",
    "phone": "401-309-8227",
    "custom_referral_link": "alluramedicalesthetics"
  },
  {
    "name": "Anderson Aesthetics",
    "address": "2710 Old Milton Pkwy Suite 150",
    "city": "Alpharetta",
    "state": "Georgia",
    "zip_code": 30009,
    "phone": "4042564247",
    "custom_referral_link": "andersonaesthetics"
  },
  {
    "name": "Jilan Wise Aesthetics",
    "address": "10624 s Eastern Ave Studio H-Jilan Wise Aesthetics",
    "city": "Henderson",
    "state": "NV",
    "zip_code": 89052,
    "phone": "7029693020",
    "custom_referral_link": "jilanwiseaesthetics"
  },
  {
    "name": "FACEBYMACE",
    "address": "83 Crater Pool Ln",
    "city": "Saratoga springs",
    "state": "UT",
    "zip_code": 84045,
    "phone": "9705819367",
    "custom_referral_link": "facebymace"
  },
  {
    "name": "Clover Skin Inc",
    "address": "135 S State St, 19",
    "city": "Lindon",
    "state": "UT",
    "zip_code": 84042,
    "phone": "6024991021",
    "custom_referral_link": "cloverskininc"
  },
  {
    "name": "Luxe Lift Aesthetics & Women\u2019s Wellness",
    "address": "612 N Logan Ave, Unit B",
    "city": "Danville",
    "state": "IL",
    "zip_code": 61832,
    "phone": "2176660401",
    "custom_referral_link": "luxeliftaesthetics"
  },
  {
    "name": "LAZ Skincare INC",
    "address": "32 Union Sq E",
    "city": "New York",
    "state": "New York",
    "zip_code": "10003-3240",
    "phone": "3475065880",
    "custom_referral_link": "lazskincare"
  },
  {
    "name": "SkinAesthetics",
    "address": "1233 County Road 214",
    "city": "East Bernard",
    "state": "TX",
    "zip_code": 77435,
    "phone": "713-855-7993",
    "custom_referral_link": "skinaesthetics"
  },
  {
    "name": "Geo Aesthetics",
    "address": "7711 E 111th St Ste 106",
    "city": "Tulsa",
    "state": "Oklahoma",
    "zip_code": "74133-2662",
    "phone": "9567395387",
    "custom_referral_link": "geoaesthetics"
  },
  {
    "name": "The Little Brow Room",
    "address": "N3363 WI-16",
    "city": "La Crosse",
    "state": "WI",
    "zip_code": 54601,
    "phone": "6085197037",
    "custom_referral_link": "thelittlebrowroom"
  },
  {
    "name": "lux injectables",
    "address": "1831 N. Belcher Road Unit C-1, Clearwater, FL, United States, Florida",
    "city": "Clearwater, FL",
    "state": "florida",
    "zip_code": 33765,
    "phone": "7276988225",
    "custom_referral_link": "injectorjess"
  },
  {
    "name": "Ageless Med Spa",
    "address": "414 W. Grand Pkwy S. Suite 115",
    "city": "Katy",
    "state": "Texas",
    "zip_code": 77494,
    "phone": "2813923700",
    "custom_referral_link": "agelessmedspa"
  },
  {
    "name": "Amoura Esthetics",
    "address": "13635 NW Cornell Road, Suite #170",
    "city": "Portland",
    "state": "OR",
    "zip_code": 97229,
    "phone": "9712175025",
    "custom_referral_link": "amouraesthetics"
  },
  {
    "name": "Evoultion Skyn Aesthetics",
    "address": "3485 University Ave Suite 24",
    "city": "Riverside",
    "state": "CA",
    "zip_code": 92501,
    "phone": "9512584646",
    "custom_referral_link": "evoultionskynaesthetics"
  },
  {
    "name": "Mad Skin",
    "address": "2961 w maple loop Dr",
    "city": "Lehi",
    "state": "UT",
    "zip_code": 84043,
    "phone": "7023056600",
    "custom_referral_link": "madskin"
  },
  {
    "name": "DRVN Aesthetics",
    "address": "206A S Loop 336 W #225",
    "city": "Conroe",
    "state": "TX",
    "zip_code": 77304,
    "phone": "281-720-6300",
    "custom_referral_link": "drvnaesthetics"
  },
  {
    "name": "Corrective Skin Christy",
    "address": "216 W Ridge Rd",
    "city": "Saratoga Springs",
    "state": "UT",
    "zip_code": 84045,
    "phone": "9207160890",
    "custom_referral_link": "correctiveskinchristy"
  },
  {
    "name": "Satori Skin Studio",
    "address": "1025 Preston Rd #1100",
    "city": "Plano",
    "state": "TX",
    "zip_code": 75093,
    "phone": "4693639935",
    "custom_referral_link": "satoriskinstudio"
  },
  {
    "name": "Skin By Nicole",
    "address": "7301 Burnet Road Ste. 106",
    "city": "Austin",
    "state": "TEXAS",
    "zip_code": 78757,
    "phone": "(512) 856-9620",
    "custom_referral_link": "skinbynicole"
  },
  {
    "name": "Pampering Aesthetics",
    "address": "9330 corporate dr #502",
    "city": "Selma",
    "state": "Tx",
    "zip_code": 78154,
    "phone": "2107013887",
    "custom_referral_link": "pamperingaesthetics"
  },
  {
    "name": "Alluring Aesthetics",
    "address": "16530 Huebner Rd",
    "city": "San Antoino",
    "state": "TX",
    "zip_code": 78248,
    "phone": "2107415389",
    "custom_referral_link": "alluringaesthetics"
  },
  {
    "name": "Timeless Beauty Aesthetics",
    "address": "20327 I-10, Building #215, Suite 26",
    "city": "San Antonio",
    "state": "TX",
    "zip_code": 78257,
    "phone": "2107125431",
    "custom_referral_link": "timelessbeautyaesthetics"
  },
  {
    "name": "Henara Skin Company",
    "address": "5601 Brodie Ln # 1000 St. 301",
    "city": "Austin",
    "state": "TX",
    "zip_code": 78745,
    "phone": "5125060535",
    "custom_referral_link": "henaraskincompany"
  },
  {
    "name": "Bulverde Medspa",
    "address": "2877 Bulverde Rd Suite 103",
    "city": "Bulverde",
    "state": "TX",
    "zip_code": 78163,
    "phone": "8304995950",
    "custom_referral_link": "bulverdemedspa"
  },
  {
    "name": "Aesthetic & Acupuncture Clinic of Texas",
    "address": "2431 Stringer Street",
    "city": "Brenham",
    "state": "TX",
    "zip_code": 77833,
    "phone": "9794216300",
    "custom_referral_link": "aestheticacupunctureclinic"
  },
  {
    "name": "House of Preservation",
    "address": "3219 North Fitzhugh Avenue",
    "city": "Dallas",
    "state": "TX",
    "zip_code": 75201,
    "phone": "4695713740",
    "custom_referral_link": "houseofpreservation"
  },
  {
    "name": "You Holistic",
    "address": "149 Epping Road",
    "city": "Exeter",
    "state": "NH",
    "zip_code": "03833",
    "phone": "6033092030",
    "custom_referral_link": "youholistic"
  },
  {
    "name": "Blushisme by Aldana Aesthetics",
    "address": "3698 , Portales ave",
    "city": "El Paso",
    "state": "TX",
    "zip_code": 79938,
    "phone": "9158733255",
    "custom_referral_link": "blushismebyaldanaaesthetics"
  },
  {
    "name": "Vital Skin & Body LLC.",
    "address": "201 CLINITE GROVE BLVD # 130",
    "city": "Temple",
    "state": "TX",
    "zip_code": 76502,
    "phone": "12549314323",
    "custom_referral_link": "vitalskinbody"
  },
  {
    "name": "Skin Boutique by Angelique",
    "address": "1102 S. Rock St., Suite 3",
    "city": "Georgetown",
    "state": "Texas",
    "zip_code": 78626,
    "phone": "5122931778",
    "custom_referral_link": "skinboutiquebyangelique"
  },
  {
    "name": "Enamor Aesthetics and Co",
    "address": "695 W 1850 N",
    "city": "Provo",
    "state": "Utah",
    "zip_code": 84604,
    "phone": "4804402906",
    "custom_referral_link": "enamoraesthetics"
  },
  {
    "name": "Luxe Skin Clinic",
    "address": "9910 W Loop 1604 N, 128",
    "city": "San Antonio",
    "state": "TX",
    "zip_code": 78254,
    "phone": "2105446676",
    "custom_referral_link": "luxeskinclinictx"
  },
  {
    "name": "Pretty Little Lines",
    "address": "94 E 920 N",
    "city": "Santaquin",
    "state": "UT",
    "zip_code": 84655,
    "phone": "8017627192",
    "custom_referral_link": "prettylittlelines"
  },
  {
    "name": "The AZ Esthetician",
    "address": "20824 E Mewes Road",
    "city": "Queen Creek",
    "state": "AZ",
    "zip_code": 85142,
    "phone": "8168727205",
    "custom_referral_link": "theazesthetician"
  },
  {
    "name": "Desert Dream Esthetics",
    "address": "4417 N. 40th Street",
    "city": "Phoenix",
    "state": "AZ",
    "zip_code": 85018,
    "phone": "4802995183",
    "custom_referral_link": "desertdreamesthetics"
  },
  {
    "name": "Faces From Paris",
    "address": "4076 Market Street, Suite 203",
    "city": "Camp Hill",
    "state": "PA",
    "zip_code": 17011,
    "phone": null,
    "custom_referral_link": "facesfromparis"
  },
  {
    "name": "Gabbytheaesthetician",
    "address": "6137 Ortiz Dr",
    "city": "Corpus Christi",
    "state": "TEXAS",
    "zip_code": 78414,
    "phone": "3616924676",
    "custom_referral_link": "gabbytheaesthetician"
  },
  {
    "name": "All Things Aesthetics",
    "address": "1075 PEACHTREE ST NE STE 6 57030",
    "city": "Atlanta",
    "state": "GA",
    "zip_code": 30357,
    "phone": "4702318846",
    "custom_referral_link": "allthingsaesthetics"
  },
  {
    "name": "Afina Beauty and Wellness",
    "address": "4720 crepe myrtle ln",
    "city": "pasadena",
    "state": "texas",
    "zip_code": 77505,
    "phone": "2817441345",
    "custom_referral_link": "afinabeautyandwellness"
  },
  {
    "name": "LE'BODY SPA & WELLNESS",
    "address": "17107 Albert Voelker Rd, , Elgin",
    "city": "Manor",
    "state": "TX",
    "zip_code": 78621,
    "phone": "15129401107",
    "custom_referral_link": "lebodyspa"
  },
  {
    "name": "Alchemy Beauty",
    "address": "6701 Burnet Rd #163",
    "city": "Austin",
    "state": "TX",
    "zip_code": 78757,
    "phone": "512-768-7179",
    "custom_referral_link": "alchemybeauty"
  },
  {
    "name": "Aggieland Aesthetics",
    "address": "305 West 27th St Suite 114",
    "city": "Bryan",
    "state": "TX",
    "zip_code": 77803,
    "phone": "9794500979",
    "custom_referral_link": "aggielandaesthetics"
  },
  {
    "name": "Glow Haus",
    "address": "252 N Pacific Coast Highway",
    "city": "Hermosa Beach",
    "state": "CA",
    "zip_code": 90254,
    "phone": "3109469318",
    "custom_referral_link": "glowhaus"
  },
  {
    "name": "AESTHETIC NURSE JACK - KT SKIN",
    "address": "1806 Gaucho Circle",
    "city": "La porte",
    "state": "TX",
    "zip_code": 77571,
    "phone": "8325149520",
    "custom_referral_link": "aestheticnursejack"
  },
  {
    "name": "Alchemy Aesthetics Co.",
    "address": "1295 E Common St",
    "city": "New Braunfels",
    "state": "TX",
    "zip_code": 78130,
    "phone": "8303023977",
    "custom_referral_link": "alchemyaestheticsco"
  },
  {
    "name": "Healing Touch Beauty Spa",
    "address": "20011 Ventura Blvd Ste 1008",
    "city": "Woodland Hills",
    "state": "CA",
    "zip_code": 91364,
    "phone": null,
    "custom_referral_link": "healingtouch"
  },
  {
    "name": "Skinbyhannahholley",
    "address": "7391 W Charleston Blvd",
    "city": "Las Vegas",
    "state": "Nevada",
    "zip_code": 89117,
    "phone": "7026729221",
    "custom_referral_link": "skinbyhannahholley"
  },
  {
    "name": "Lotti Aesthetics & Wellness",
    "address": "670 Shepard Ln Ste 102",
    "city": "Farmington",
    "state": "UT",
    "zip_code": 84025,
    "phone": "8018421749",
    "custom_referral_link": "lottiaesthetics"
  },
  {
    "name": "Dezthetics Skincare Studio LLC",
    "address": "3442 Williams Road",
    "city": "Benbrook",
    "state": "Texas",
    "zip_code": 76116,
    "phone": "5188607881",
    "custom_referral_link": "deztheticsskincare"
  },
  {
    "name": "Cloud28 Aesthetics, LLC",
    "address": "5940 Via Norte Ln",
    "city": "El Paso",
    "state": "Texas",
    "zip_code": 79912,
    "phone": "9155038432",
    "custom_referral_link": "cloud28aesthetics"
  },
  {
    "name": "Principle Artistry",
    "address": "765 S. Cotton Ln Suite 206",
    "city": "Goodyear",
    "state": "AZ",
    "zip_code": 85338,
    "phone": "5203297131",
    "custom_referral_link": "principleartistry"
  },
  {
    "name": "WN. Skin",
    "address": "16204 Old Oak Drive",
    "city": "Edmond",
    "state": "OK",
    "zip_code": 73013,
    "phone": "4056237949",
    "custom_referral_link": "wnskin"
  },
  {
    "name": "Skincareby_meg",
    "address": "20 Dogwood Lane",
    "city": "Turnersville",
    "state": "NJ",
    "zip_code": "08012",
    "phone": "8563045770",
    "custom_referral_link": "skincarebymeg"
  },
  {
    "name": "Smart Skin Med Spa",
    "address": "1931 29th avenue",
    "city": "s. homewood",
    "state": "al",
    "zip_code": 35209,
    "phone": "2059681301",
    "custom_referral_link": "smartskinmedspa"
  },
  {
    "name": "Eternal Beauty Spa",
    "address": "10100 West Maple Street Suite 217",
    "city": "Wichita",
    "state": "KS",
    "zip_code": 67209,
    "phone": "3168416453",
    "custom_referral_link": "eternalbeautyspa"
  },
  {
    "name": "Just Peachy Esthetics",
    "address": "3203 Washington Rd , Suite C",
    "city": "Kenosha",
    "state": "WI",
    "zip_code": 53144,
    "phone": "2623836167",
    "custom_referral_link": "justpeachyesthetics"
  },
  {
    "name": "ayla Med Spa",
    "address": "20701 North Scottsdale Road, #105",
    "city": "Scottsdale",
    "state": "Arizona",
    "zip_code": 85255,
    "phone": "6027556861",
    "custom_referral_link": "aylamedspa"
  },
  {
    "name": "Be Confident Aesthetics",
    "address": "140 Diamond Creek Place STE 135",
    "city": "Roseville",
    "state": "CA",
    "zip_code": 95747,
    "phone": "2097439915",
    "custom_referral_link": "beconfidentaesthetics"
  },
  {
    "name": "The Advanced Aesthetician",
    "address": "15720 SW GREENS WAY",
    "city": "TIGARD",
    "state": "OR",
    "zip_code": 97224,
    "phone": "5038048357",
    "custom_referral_link": "theadvancedaesthetician"
  },
  {
    "name": "Ethereal Skin Medical Spa",
    "address": "335 morganza rd",
    "city": "Canonsburg",
    "state": "PA",
    "zip_code": 15317,
    "phone": "4127153692",
    "custom_referral_link": "etherealskinmedicalspa"
  },
  {
    "name": "LH Spa & Rejuvenation",
    "address": "10-12 Elmer St",
    "city": "madison",
    "state": "New Jersey",
    "zip_code": "07940",
    "phone": "9733772000",
    "custom_referral_link": "lhsparejuvenation"
  },
  {
    "name": "beautyxjaney",
    "address": "4151 Arch Dr, Apt 220",
    "city": "STUDIO CITY",
    "state": "CA",
    "zip_code": 91604,
    "phone": "6127706390",
    "custom_referral_link": "beautyxjaney"
  },
  {
    "name": "Skyn X Cyn",
    "address": "8500 Melrose Ave",
    "city": "Los Angeles",
    "state": "CA",
    "zip_code": 90069,
    "phone": "3108738464",
    "custom_referral_link": "skynxcyn"
  },
  {
    "name": "Bella Donna Skin Studio",
    "address": "24672 San Juan Avenue, Suite 104",
    "city": "Dana Point",
    "state": "CA",
    "zip_code": 92629,
    "phone": "9492387202",
    "custom_referral_link": "belladonnaskinstudio"
  },
  {
    "name": "the aesthetic collective",
    "address": "909 main st",
    "city": "Bastrop",
    "state": "Tx",
    "zip_code": 78602,
    "phone": "15129579638",
    "custom_referral_link": "theaestheticcollective"
  },
  {
    "name": "Skin and Tonic",
    "address": "3511 Volunteer Blvd. Suite #120",
    "city": "Henderson",
    "state": "NV",
    "zip_code": 89044,
    "phone": "702-854-6654",
    "custom_referral_link": "skinandtonic"
  },
  {
    "name": "Laserderm Medispa",
    "address": "6 Gordon Rd",
    "city": "Shrewsbury",
    "state": "MA",
    "zip_code": "01545",
    "phone": "15087527113",
    "custom_referral_link": "laserdermmedispa"
  },
  {
    "name": "Facial Studio Magdalena",
    "address": "770 N La Salle Dr, ste 201",
    "city": "Chicago",
    "state": "IL",
    "zip_code": 60654,
    "phone": "773-501-5440",
    "custom_referral_link": "facialstudiomagdalena"
  },
  {
    "name": "MECO BEAUTY",
    "address": "1310 E. Broadway Road, #103",
    "city": "Tempe",
    "state": "AZ",
    "zip_code": 85282,
    "phone": "4802710078",
    "custom_referral_link": "mecobeauty"
  },
  {
    "name": "Luminous Glow Med Spa",
    "address": "2652 FM 407, Suite #135",
    "city": "Bartonville",
    "state": "TX",
    "zip_code": 76226,
    "phone": "972-345-8900",
    "custom_referral_link": "luminousglowmedspa"
  },
  {
    "name": "allythe.esti",
    "address": "3920 Pony Express Rd",
    "city": "Kearney",
    "state": "NE",
    "zip_code": 68847,
    "phone": "6363575856",
    "custom_referral_link": "thespakearney"
  },
  {
    "name": "The Skin Suite by Kristen",
    "address": "1529 Route 206 suite I-2",
    "city": "Tabernacle",
    "state": "NJ",
    "zip_code": "08088",
    "phone": "6092322513",
    "custom_referral_link": "skinsuitebykristen"
  },
  {
    "name": "Frances Parker Aesthetics",
    "address": "8641 Pine Needle Cove",
    "city": "Germantown",
    "state": "Tennessee",
    "zip_code": 38139,
    "phone": "9014912585",
    "custom_referral_link": "francesparkeraesthetics"
  },
  {
    "name": "Bespoke Aesthetics",
    "address": "15825 North 71st Street",
    "city": "Scottsdale",
    "state": "AZ",
    "zip_code": 85254,
    "phone": null,
    "custom_referral_link": "bespokeaesthetics"
  },
  {
    "name": "Alexanne Aesthetics",
    "address": "P.O. Box 1118",
    "city": "Crystal Beach",
    "state": "Texas",
    "zip_code": 77650,
    "phone": "7134192484",
    "custom_referral_link": "alexanneaesthetics"
  },
  {
    "name": "Bella Vita Med Spa",
    "address": "4400-3 E. Central Texas Expy",
    "city": "Killeen",
    "state": "TX",
    "zip_code": 76543,
    "phone": "2542919718",
    "custom_referral_link": "bellavitamedspa"
  },
  {
    "name": "Elevated Aesthetics",
    "address": "102 Walnut St.",
    "city": "Goldsboro",
    "state": "NC",
    "zip_code": 27530,
    "phone": "9194299532",
    "custom_referral_link": "mcLambwellness"
  },
  {
    "name": "B3 Performance & Aesthetic Medicine",
    "address": "2131 W White Oaks Dr",
    "city": "Springfield",
    "state": "IL",
    "zip_code": 62704,
    "phone": "12175085859",
    "custom_referral_link": "b3performance"
  },
  {
    "name": "Bare Aesthetics NJ",
    "address": "18 oliver street",
    "city": "newark",
    "state": "New Jersey",
    "zip_code": "07102",
    "phone": "5513380671",
    "custom_referral_link": "bareaestheticsnj"
  },
  {
    "name": "Skn by Kacie",
    "address": "175 N State St. Suite #23",
    "city": "Orem",
    "state": "UT",
    "zip_code": 84057,
    "phone": "8014725398",
    "custom_referral_link": "sknbykacie"
  },
  {
    "name": "Amadi Aesthetics Plastic Surgery",
    "address": "1503 2nd Ave W",
    "city": "Seattle",
    "state": "WA",
    "zip_code": 98119,
    "phone": "2062164500",
    "custom_referral_link": "amadiaesthetics"
  },
  {
    "name": "Facial Aesthetics Team",
    "address": "710 N Post Oak Rd, 200",
    "city": "Houston",
    "state": "Texas",
    "zip_code": 77024,
    "phone": "713-637-9001",
    "custom_referral_link": "facialaestheticsteam"
  },
  {
    "name": "Jordan Macall Skincare",
    "address": "1304 Valle Ln NW",
    "city": "Albuquerque",
    "state": "NM",
    "zip_code": 87107,
    "phone": "5056889937",
    "custom_referral_link": "jordanmacallskincare"
  },
  {
    "name": "Poise Aesthetics",
    "address": "415 W Meadowlark Blvd",
    "city": "Derby",
    "state": "Kansas",
    "zip_code": 67037,
    "phone": "3167793445",
    "custom_referral_link": "poiseaesthetics"
  },
  {
    "name": "Trouvaille Med Spa Tinley Park",
    "address": "9501 West 171st Street Ste Q",
    "city": "Tinley park",
    "state": "Illinois",
    "zip_code": 60478,
    "phone": "708-966-0788",
    "custom_referral_link": "trouvaillemedspa"
  },
  {
    "name": "Claire O'bryan, NP",
    "address": "1900 Waterway Blvd",
    "city": "Isle Of Palms",
    "state": "SC",
    "zip_code": "29451-2241",
    "phone": "8438196691",
    "custom_referral_link": "claireobryan"
  },
  {
    "name": "Complexion Medspa & Aesthetics",
    "address": "201 W Fort Macon Road",
    "city": "Atlantic Beach",
    "state": "NC",
    "zip_code": 28512,
    "phone": "2527730841",
    "custom_referral_link": "complexionmedspa"
  },
  {
    "name": "Ageless Med Spa",
    "address": "3011 Godfrey rd",
    "city": "Godfrey",
    "state": "IL",
    "zip_code": 62035,
    "phone": null,
    "custom_referral_link": "agelessmedspa2"
  },
  {
    "name": "Nikki G Aesthetics, LLC",
    "address": "388  Andra Ct",
    "city": "Gilberts",
    "state": "IL",
    "zip_code": "60136-9718",
    "phone": "6304261128",
    "custom_referral_link": "nikkigaesthetics"
  },
  {
    "name": "Karli Jillian Esthetics LLC",
    "address": "350 Watervliet Shaker Rd",
    "city": "Watervliet",
    "state": "NY",
    "zip_code": 12189,
    "phone": "9179740125",
    "custom_referral_link": "karlijillianesthetics"
  },
  {
    "name": "Brilliance Beauty Bar",
    "address": "18826 N 51st Dr",
    "city": "Glendale",
    "state": "AZ",
    "zip_code": 85308,
    "phone": "4805358899",
    "custom_referral_link": "brilliancebeautybar"
  },
  {
    "name": "Esthetics by Chelaine",
    "address": "4791 Treewood Dr.",
    "city": "Florence",
    "state": "OR",
    "zip_code": 97439,
    "phone": "(541)419-5534",
    "custom_referral_link": "estheticsbychelaine"
  },
  {
    "name": "Vixen Esthetics",
    "address": "8305 state highway 71 ste 115",
    "city": "Austin",
    "state": "Texas",
    "zip_code": 78735,
    "phone": "5125377274",
    "custom_referral_link": "vixenesthetics"
  },
  {
    "name": "Kalon Clinic",
    "address": "14098 Florida Blvd, Suite C",
    "city": "Livingston",
    "state": "LA",
    "zip_code": 70754,
    "phone": "2256866305",
    "custom_referral_link": "kalonclinic"
  },
  {
    "name": "Joon Aesthetics Bar",
    "address": "715 Discovery Blvd Suite #111",
    "city": "Cedar Park",
    "state": "Texas",
    "zip_code": 78613,
    "phone": "8306130350",
    "custom_referral_link": "joonaestheticsbar"
  },
  {
    "name": "LV Skin Aesthetics.com",
    "address": "9300 John Hickman Pkwy St\u00e9. 204",
    "city": "Frisco",
    "state": "texas",
    "zip_code": 75035,
    "phone": "972-294-5362",
    "custom_referral_link": "lvskin"
  },
  {
    "name": "Bombshell Skin Clinic",
    "address": "20330 Huebner Rd Suite 105",
    "city": "San Antonio",
    "state": "TX",
    "zip_code": 78258,
    "phone": "210-772-5662",
    "custom_referral_link": "bombshellskin"
  },
  {
    "name": "AMAZIN AESTHETICS",
    "address": "8100 E Union Ave #1512",
    "city": "Denver",
    "state": "Colorado",
    "zip_code": 80237,
    "phone": "3039315226",
    "custom_referral_link": "amazinaesthetics"
  },
  {
    "name": "Revived skin",
    "address": "6720 Ixtapa Pl",
    "city": "El Paso",
    "state": "TX",
    "zip_code": 79932,
    "phone": "9155497780",
    "custom_referral_link": "revivedskin"
  },
  {
    "name": "skin cabinet",
    "address": "505 S LOCUST ST",
    "city": "DENTON",
    "state": "TX",
    "zip_code": 76201,
    "phone": "3144350853",
    "custom_referral_link": "skincabinet"
  },
  {
    "name": "LV Skin Aesthetics",
    "address": "9300 John Hickman Pkwy Ste. 204",
    "city": "Frisco",
    "state": "Texas",
    "zip_code": 75035,
    "phone": "9722945362",
    "custom_referral_link": "lvskinaesthetics"
  },
  {
    "name": "Elevare MD",
    "address": "3357 N SOUTHPORT AVE",
    "city": "CHICAGO",
    "state": "IL",
    "zip_code": 60657,
    "phone": "773-598-4440",
    "custom_referral_link": "elevaremd"
  },
  {
    "name": "Skin Esteem with Danielle",
    "address": "430 Sawgrass Court",
    "city": "Saint Charles",
    "state": "Missouri",
    "zip_code": 63301,
    "phone": "3144590704",
    "custom_referral_link": "skinesteem"
  },
  {
    "name": "Inject Beauty",
    "address": "218 Trenton Street",
    "city": "West Monroe",
    "state": "La",
    "zip_code": 71291,
    "phone": "3182356153",
    "custom_referral_link": "injectbeauty"
  },
  {
    "name": "Dermatology Physicians, Inc.",
    "address": "203 N. Lime Street",
    "city": "Lancaster",
    "state": "Pennsylvania",
    "zip_code": 17602,
    "phone": "17173926267",
    "custom_referral_link": "dermatologyphysiciansinc"
  },
  {
    "name": "BB Aesthetics",
    "address": "2801 Ward Blvd. Suite 3 (I-2)",
    "city": "Wilson",
    "state": "NC",
    "zip_code": 27893,
    "phone": "2522304183",
    "custom_referral_link": "bbaesthetics"
  },
  {
    "name": "Dyana Raskin Aesthetics",
    "address": "3119 Newtown Ave, Suite 801",
    "city": "Astoria",
    "state": "New York",
    "zip_code": 11102,
    "phone": "3474213287",
    "custom_referral_link": "dyanaraskin"
  },
  {
    "name": "flawless ON FIFTH",
    "address": "41911 5th st suite 103",
    "city": "Temecula",
    "state": "CA",
    "zip_code": 92590,
    "phone": "9513824726",
    "custom_referral_link": "flawlessonfifth"
  },
  {
    "name": "Beauty Room",
    "address": "1120 Marne Drive",
    "city": "Hollister",
    "state": "CA",
    "zip_code": 95023,
    "phone": "4084309350",
    "custom_referral_link": "beautyroom"
  },
  {
    "name": "Charlotte James Skincare",
    "address": "2211 Corinth Ave. Suite 100",
    "city": "Los Angeles",
    "state": "California",
    "zip_code": 90064,
    "phone": "3104785100",
    "custom_referral_link": "charlottejames"
  },
  {
    "name": "KLAR Skin & Medical Spa",
    "address": "N2996 Cushman Road",
    "city": "Jefferson",
    "state": "WI",
    "zip_code": 53549,
    "phone": "2627164476",
    "custom_referral_link": "klarskin"
  },
  {
    "name": "Lotus & Sage Beauty",
    "address": "9493 Dalton Way",
    "city": "Orangevale",
    "state": "CA",
    "zip_code": 95662,
    "phone": "9165750563",
    "custom_referral_link": "lotussagebeauty"
  },
  {
    "name": "La Fleur Aesthetics",
    "address": "314 Raleigh Street",
    "city": "Holly Springs",
    "state": "NC",
    "zip_code": 27540,
    "phone": "919-899-1443",
    "custom_referral_link": "lafleuraesthetics"
  },
  {
    "name": "Ovation Med Spa",
    "address": "4801 Woodway Suite 150W",
    "city": "Houston",
    "state": "TX",
    "zip_code": 77056,
    "phone": "7139362490",
    "custom_referral_link": "ovationmedspa"
  },
  {
    "name": "Glow by the Coast Esthetics",
    "address": "427 Penelope lane",
    "city": "Santa Maria",
    "state": "CA",
    "zip_code": 93455,
    "phone": "6198766963",
    "custom_referral_link": "glowbythecoast"
  },
  {
    "name": "AesthetiX Skin Lounge",
    "address": "13833 N May Ave",
    "city": "Oklahoma City",
    "state": "OK",
    "zip_code": 73134,
    "phone": "4052545520",
    "custom_referral_link": "aesthetixskinlounge"
  },
  {
    "name": "April Marie Glow",
    "address": "1714 W. Guadalupe Rd., Ste 111",
    "city": "Gilbert",
    "state": "Arizona",
    "zip_code": 85233,
    "phone": null,
    "custom_referral_link": "aprilmarieglow"
  },
  {
    "name": "Iuvenis Aesthetics",
    "address": "1102 N East Street",
    "city": "Olney",
    "state": "IL",
    "zip_code": 62450,
    "phone": "8128819701",
    "custom_referral_link": "Iuvenisaesthetics"
  },
  {
    "name": "Skin by Katherine",
    "address": "70 Sycamore Ave",
    "city": "Bethpage",
    "state": "NY",
    "zip_code": 11714,
    "phone": "5162369652",
    "custom_referral_link": "skinbykatherine"
  },
  {
    "name": "The Pink Canoe Studio",
    "address": "3245 West Carefree Circle, building F",
    "city": "Colorado Springs",
    "state": "CO",
    "zip_code": 80917,
    "phone": "7193554087",
    "custom_referral_link": "thepinkcanoe"
  },
  {
    "name": "Meraki Aesthetics",
    "address": "124 Plandome Road",
    "city": "manhasset",
    "state": "new york",
    "zip_code": 11030,
    "phone": "9177050251",
    "custom_referral_link": "merakiaesthetics"
  },
  {
    "name": "OA Facial Plastics",
    "address": "11725 North Illinois Street",
    "city": "Carmel",
    "state": "Indiana",
    "zip_code": 46032,
    "phone": "3177086984",
    "custom_referral_link": "oafacialplastics"
  },
  {
    "name": "Modern Skin Med Spa",
    "address": "6560 John Hickman Pkwy 300",
    "city": "Frisco",
    "state": "Tx",
    "zip_code": 75078,
    "phone": "2148177390",
    "custom_referral_link": "modernskinmedspa"
  },
  {
    "name": "360 Esthetics",
    "address": "1409 S. 9th Avenue, Suite 308",
    "city": "Edinburg",
    "state": "Texas",
    "zip_code": 78539,
    "phone": "830-278-0778",
    "custom_referral_link": "360esthetics"
  },
  {
    "name": "C2 Aesthetics",
    "address": "1513 New Hope Dr Ste: C1",
    "city": "Cedar park",
    "state": "TX",
    "zip_code": 78641,
    "phone": "737-843-4400",
    "custom_referral_link": "C2aesthetics"
  },
  {
    "name": "Renew Skincare Med Spa",
    "address": "4701 West Fwy, #500, Spa Suite #134",
    "city": "Fort Worth",
    "state": "Texas",
    "zip_code": 76107,
    "phone": "8179171769",
    "custom_referral_link": "renewskincare"
  },
  {
    "name": "Uptown Aesthetics",
    "address": "36 Main St #104",
    "city": "Park Ridge",
    "state": "IL",
    "zip_code": 60068,
    "phone": "(847) 873-2848",
    "custom_referral_link": "uptownaesthetics"
  },
  {
    "name": "True Skin by Lauren",
    "address": "1050 Legion Dr",
    "city": "Elm Grove",
    "state": "WI",
    "zip_code": 53122,
    "phone": "9202296182",
    "custom_referral_link": "trueskinbylauren"
  },
  {
    "name": "Aesthetics By Vanessa",
    "address": "9030, Brentwood Blvd Ste A.",
    "city": "Brentwood",
    "state": "CA",
    "zip_code": 94513,
    "phone": "9253251820",
    "custom_referral_link": "aestheticsbyvanessa"
  },
  {
    "name": "Tulua Aesthetics and Wellness",
    "address": "12440 Emily Court Suite 504",
    "city": "Sugar Land",
    "state": "Texas",
    "zip_code": 77478,
    "phone": "832-702-0440",
    "custom_referral_link": "tuluaaesthetics"
  },
  {
    "name": "The Little Orchid Aesthetics",
    "address": "13635 E 104th Ave #150",
    "city": "Commerce City",
    "state": "CO",
    "zip_code": 80022,
    "phone": "7206904699",
    "custom_referral_link": "thelittleorchid"
  },
  {
    "name": "BLU Medical Aesthetics",
    "address": "8222 s holly st",
    "city": "Centennial",
    "state": "CO",
    "zip_code": 80122,
    "phone": "3037205625",
    "custom_referral_link": "blumedicalaesthetics"
  },
  {
    "name": "Mercy Med Spa",
    "address": "1016 South Texas Blvd",
    "city": "Weslaco",
    "state": "Texas",
    "zip_code": 78596,
    "phone": "9566477920",
    "custom_referral_link": "mercymedspa"
  },
  {
    "name": "Glow Aesthetics LLC",
    "address": "668 red bud rd",
    "city": "Calhoun",
    "state": "Georgia",
    "zip_code": 30701,
    "phone": "7705483318",
    "custom_referral_link": "glowaesthetics"
  },
  {
    "name": "Inspiredskincarebr@gmail.com",
    "address": "10226 Jefferson Hwy Suite 101`",
    "city": "Baton Rouge",
    "state": "Louisiana",
    "zip_code": 70809,
    "phone": "2257761999",
    "custom_referral_link": "inspiredskincare"
  },
  {
    "name": "Clarity spa",
    "address": "120 west park ave suite 307",
    "city": "Long Beach",
    "state": "Ny",
    "zip_code": 11561,
    "phone": "5165437793",
    "custom_referral_link": "clarityspa"
  },
  {
    "name": "Skin IQ Havasu",
    "address": "1990 McCulloch Blvd N #D10",
    "city": "Lake Havasu City",
    "state": "AZ",
    "zip_code": 86403,
    "phone": "9287330987",
    "custom_referral_link": "skiniqhavasu"
  },
  {
    "name": "Lizii Skincare Studio",
    "address": "6362  MCLEOD DR. STE 2",
    "city": "Las Vegas",
    "state": "NV",
    "zip_code": "89120-4433",
    "phone": "7027230098",
    "custom_referral_link": "liziiskincare"
  },
  {
    "name": "My Skin Care Girl LLC",
    "address": "3620 Kirkwood Hwy Suite 303",
    "city": "Wilmington",
    "state": "DE",
    "zip_code": 19809,
    "phone": "3027431230",
    "custom_referral_link": "myskincaregirl"
  },
  {
    "name": "Serving Skin Aesthetics",
    "address": "4400 State Hwy 121 Suite 220",
    "city": "Lewisville",
    "state": "TX",
    "zip_code": 75056,
    "phone": "4692743164",
    "custom_referral_link": "servingskin"
  },
  {
    "name": "Kerry Lorene Skin",
    "address": "108 Desert Forest Ct",
    "city": "austin",
    "state": "TX",
    "zip_code": 78738,
    "phone": "5129717322",
    "custom_referral_link": "kerrylorene"
  },
  {
    "name": "Studio E",
    "address": "103 N 22nd St",
    "city": "Boise",
    "state": "ID",
    "zip_code": 83702,
    "phone": "208-409-4846",
    "custom_referral_link": "studioe"
  },
  {
    "name": "Alice Khalkad House of Skin",
    "address": "55 Bryant ave suite 301-304",
    "city": "Roslyn",
    "state": "NY",
    "zip_code": 11548,
    "phone": "3472570199",
    "custom_referral_link": "alicekhalkadhouseofskin"
  },
  {
    "name": "ABA Aesthetics",
    "address": "2109 Summer Lee Drive unit 103, suite 304",
    "city": "Rockwall",
    "state": "Texas",
    "zip_code": 75032,
    "phone": "4693352222",
    "custom_referral_link": "abaaesthetics"
  },
  {
    "name": "PhoebeGlow Aesthetics",
    "address": "120 Knob Hill Ln",
    "city": "Double Oak",
    "state": "TX",
    "zip_code": 75077,
    "phone": "4692379509",
    "custom_referral_link": "phoebeGlowaesthetics"
  },
  {
    "name": "Skin Binge",
    "address": "4847 W 3350 S",
    "city": "West Haven",
    "state": "UT",
    "zip_code": 84401,
    "phone": "385-626-2730",
    "custom_referral_link": "skinbinge"
  },
  {
    "name": "True Derm MedSpa",
    "address": "6759 S Tempe Ct",
    "city": "Aurora",
    "state": "CO",
    "zip_code": 80016,
    "phone": "7208005716",
    "custom_referral_link": "truedermmedspa"
  },
  {
    "name": "CK beauty bar",
    "address": "1411 Biscay Dr",
    "city": "Edwardsville",
    "state": "IL",
    "zip_code": 62025,
    "phone": "6188665207",
    "custom_referral_link": "ckbeautybar"
  },
  {
    "name": "MONTROSE DERMATOLOGY",
    "address": "2730 Commercial Way",
    "city": "MONTROSE",
    "state": "Colorado",
    "zip_code": 81401,
    "phone": "9709644036",
    "custom_referral_link": "montrosedermatology"
  },
  {
    "name": "GLOKC",
    "address": "5700 NW 130th St STE 4",
    "city": "Oklahoma City",
    "state": "OK",
    "zip_code": 73142,
    "phone": "5806561780",
    "custom_referral_link": "glokc"
  },
  {
    "name": "Desert Aesthetics by April LLC",
    "address": "1045 W Hero Ct",
    "city": "Bluffdale",
    "state": "UT",
    "zip_code": 84065,
    "phone": "7027288245",
    "custom_referral_link": "desertaesthetics"
  },
  {
    "name": "SKN at Franks Dermatology",
    "address": "4220 N Rodney Parham Road Suite 102",
    "city": "Little Rock",
    "state": "AR",
    "zip_code": 72212,
    "phone": "5018598973",
    "custom_referral_link": "sknatfranksdermatology"
  },
  {
    "name": "FIRST BODY",
    "address": "100 N MAIN ST SUITE 330",
    "city": "ALPHARETTA",
    "state": "GA",
    "zip_code": 30009,
    "phone": "7707692649",
    "custom_referral_link": "firstbody"
  },
  {
    "name": "Hope Concierge Aesthetics",
    "address": "3900 Harvard Ave.",
    "city": "Metairie",
    "state": "LA",
    "zip_code": 70006,
    "phone": "5042356640",
    "custom_referral_link": "hopeconcierge"
  },
  {
    "name": "The Aesthetic Life",
    "address": "1483 W 1640 S",
    "city": "Woods Cross",
    "state": "UT",
    "zip_code": 84087,
    "phone": "8014994991",
    "custom_referral_link": "theaestheticlife"
  },
  {
    "name": "Ageless Aesthetics by Sonia",
    "address": "1042 Northside Dr. NW, Suite #M210",
    "city": "Atlanta",
    "state": "GA",
    "zip_code": 30318,
    "phone": "4046906880",
    "custom_referral_link": "agelessaesthetics"
  },
  {
    "name": "Sanctuary Skincare",
    "address": "2545 Jackson Keller Road, Suite 1",
    "city": "San Antonio",
    "state": "TX",
    "zip_code": 78230,
    "phone": "2403280984",
    "custom_referral_link": "sanctuaryskincare"
  },
  {
    "name": "Blissful Glow Aesthetics LLC",
    "address": "2901 Doughtery Ferry Rd, Suite 113",
    "city": "St. Louis",
    "state": "MO",
    "zip_code": 63122,
    "phone": "6362190581",
    "custom_referral_link": "blissfulglow"
  },
  {
    "name": "Rosa Alba Skincare",
    "address": "5401 College Blvd Unit 203",
    "city": "Leawood",
    "state": "KS",
    "zip_code": 66211,
    "phone": "9132400997",
    "custom_referral_link": "rosaalba"
  },
  {
    "name": "Pure Hydration and Aesthetics",
    "address": "1327 S Interstate Dr. Suite B",
    "city": "Cedar City",
    "state": "UT",
    "zip_code": 84720,
    "phone": "435 590 3471",
    "custom_referral_link": "purehydration"
  },
  {
    "name": "Blue Divine Aesthetics",
    "address": "107 W Paces Ferry Rd NW",
    "city": "Atlanta",
    "state": "GA",
    "zip_code": 30305,
    "phone": "4044674232",
    "custom_referral_link": "bluedivine"
  },
  {
    "name": "Evoke Aesthetics",
    "address": "23622 Calabasas Rd, Suite 144",
    "city": "Calabasas",
    "state": "CA",
    "zip_code": 91302,
    "phone": "3105646794",
    "custom_referral_link": "evokeaesthetics"
  },
  {
    "name": "Glam Rose Skin",
    "address": "337 Wolcott Ave",
    "city": "Rochester",
    "state": "NY",
    "zip_code": 14606,
    "phone": "5857090210",
    "custom_referral_link": "glamroseskin"
  },
  {
    "name": "Serene Esthetics",
    "address": "78 West Alisal Street",
    "city": "Salinas",
    "state": "CA",
    "zip_code": 93901,
    "phone": "8312063253",
    "custom_referral_link": "sereneesthetics"
  },
  {
    "name": "KT Aesthetics and Beauty",
    "address": "9810 Dollarway Rd, 102",
    "city": "White Hall",
    "state": "AR",
    "zip_code": 71602,
    "phone": "8705407179",
    "custom_referral_link": "ktaesthetics"
  },
  {
    "name": "Mongael Aesthetics",
    "address": "520 N. Michigan Ave.",
    "city": "Chicago",
    "state": "IL",
    "zip_code": 60611,
    "phone": "(312) 806-2946",
    "custom_referral_link": "mongaelaesthetics"
  },
  {
    "name": "Sydney Scarpino Aesthetics",
    "address": "19600 East Parker Square Drive Suite 110",
    "city": "Parker",
    "state": "CO",
    "zip_code": 80134,
    "phone": "3039995318",
    "custom_referral_link": "sydneyscarpino"
  },
  {
    "name": "Golden Hour Skincare",
    "address": "2900 S Congress Ave #109",
    "city": "Austin",
    "state": "TX",
    "zip_code": 78704,
    "phone": "(512) 537-5506",
    "custom_referral_link": "goldenhourskincare"
  },
  {
    "name": "Rooted Culture Aesthetics",
    "address": "1812 Springdale Street",
    "city": "Mount Horeb",
    "state": "WI",
    "zip_code": 53572,
    "phone": "6082796373",
    "custom_referral_link": "rootedculture"
  },
  {
    "name": "Beaut\u00e9 Haus",
    "address": "717 west Main Street",
    "city": "Meridian",
    "state": "Idaho",
    "zip_code": 83642,
    "phone": "2088097575",
    "custom_referral_link": "beautehaus"
  },
  {
    "name": "Sydnee Short Aesthetics",
    "address": "10056 s smythe dr",
    "city": "Apache junction",
    "state": "Az",
    "zip_code": 85120,
    "phone": "4802959281",
    "custom_referral_link": "Sydneeshort"
  },
  {
    "name": "Luminosity Skin Care",
    "address": "1813 Quaker Hollow Ln",
    "city": "Streamwood",
    "state": "IL",
    "zip_code": 60107,
    "phone": "2245187151",
    "custom_referral_link": "luminosityskincare"
  },
  {
    "name": "Meraki skin and beauty",
    "address": "724 SPIRIT LAKE HWY",
    "city": "CASTLE ROCK",
    "state": "WA",
    "zip_code": 98611,
    "phone": "3604313975",
    "custom_referral_link": "merakiskin"
  },
  {
    "name": "Joelle Aesthetics NY",
    "address": "1611 US-6",
    "city": "Carmel",
    "state": "NY",
    "zip_code": 10512,
    "phone": "8459047550",
    "custom_referral_link": "joelleaesthetics"
  },
  {
    "name": "Vivify Body & Co.",
    "address": "117 9th Street, Suite 107B",
    "city": "Brooklyn",
    "state": "New York",
    "zip_code": 11215,
    "phone": "929-491-0048",
    "custom_referral_link": "vivifybody"
  },
  {
    "name": "Family Medicine Associates PA",
    "address": "1500 S Bryan Rd",
    "city": "Mission",
    "state": "TX",
    "zip_code": 78572,
    "phone": "9033318106",
    "custom_referral_link": "familymedicineassociates"
  },
  {
    "name": "Indy esthetics | skin studio",
    "address": "12909 William Penn Boulevard",
    "city": "Oklahoma City",
    "state": "OK",
    "zip_code": 73120,
    "phone": "4058244716",
    "custom_referral_link": "indyesthetics"
  },
  {
    "name": "Pelle Medical Spa",
    "address": "159 Frontage Rd",
    "city": "Manchester",
    "state": "nh",
    "zip_code": 33031,
    "phone": "6036277000",
    "custom_referral_link": "pellemedicalspa"
  },
  {
    "name": "Avail Aesthetics",
    "address": "2006 Fairview Rd",
    "city": "Raleigh",
    "state": "NC",
    "zip_code": 27608,
    "phone": "9193225440",
    "custom_referral_link": "availaesthetics"
  },
  {
    "name": "NIMA",
    "address": "10714 S River Front Pkwy",
    "city": "South Jordan",
    "state": "UT",
    "zip_code": 84095,
    "phone": "8448996462",
    "custom_referral_link": "nima"
  },
  {
    "name": "NIMA",
    "address": "6111 S Buffalo Dr Suite 170",
    "city": "Las Vegas",
    "state": "NV",
    "zip_code": 89113,
    "phone": "8448996462",
    "custom_referral_link": "nimaspa"
  },
  {
    "name": "Valiskin",
    "address": "7336 Rubio Ave",
    "city": "Los Angeles",
    "state": "CA",
    "zip_code": 91406,
    "phone": "7473043892",
    "custom_referral_link": "valiskin"
  },
  {
    "name": "Dose of Youth",
    "address": "2016 E. Wildermuth Ave. #1088",
    "city": "Tempe",
    "state": "AZ",
    "zip_code": 85281,
    "phone": "4802978782",
    "custom_referral_link": "doseofyouth"
  },
  {
    "name": "Vida Aesthetics and Wellness",
    "address": "3407 Montrose Blvd STE A5",
    "city": "Houston",
    "state": "Texas",
    "zip_code": 77006,
    "phone": "2819750251",
    "custom_referral_link": "vidaaesthetics"
  },
  {
    "name": "SkinByLiss LLC",
    "address": "1320 Layven Ave",
    "city": "Florissant",
    "state": "MO",
    "zip_code": 63031,
    "phone": "3143486293",
    "custom_referral_link": "skinbyliss"
  },
  {
    "name": "Chalena M Esthetics",
    "address": "2181 south Osage",
    "city": "Skiatook",
    "state": "OK",
    "zip_code": 74070,
    "phone": "9189028716",
    "custom_referral_link": "chalenamesthetics"
  },
  {
    "name": "Skin Stories Aesthetics",
    "address": "1735 S 82nd Way",
    "city": "Mesa",
    "state": "AZ",
    "zip_code": 85209,
    "phone": "4803382124",
    "custom_referral_link": "skinstories"
  },
  {
    "name": "Revival Skin",
    "address": "9251 E Peakview Ave Unit G",
    "city": "Greenwood Village",
    "state": "Colorado",
    "zip_code": 80111,
    "phone": "6513996177",
    "custom_referral_link": "revivalskin"
  },
  {
    "name": "Leyla Sufi Beauty Company",
    "address": "9340 N Main Street",
    "city": "Kansas City",
    "state": "MO",
    "zip_code": 64155,
    "phone": "8169747206",
    "custom_referral_link": "leylasufibeauty"
  },
  {
    "name": "Align Medspa Orland Square Mall",
    "address": "604 orland square drive",
    "city": "orland park",
    "state": "Illinois",
    "zip_code": 60462,
    "phone": "4642037564",
    "custom_referral_link": "alignmedspa"
  },
  {
    "name": "West Plano Medical Associates",
    "address": "3016 Communications Parkway, Suite 100",
    "city": "Plano",
    "state": "Texas",
    "zip_code": 75093,
    "phone": "972-312-8429",
    "custom_referral_link": "westplanomedical"
  },
  {
    "name": "Luminous You",
    "address": "3931 Coffee Rd. Suite C",
    "city": "Modesto",
    "state": "CA",
    "zip_code": 95355,
    "phone": "2098602122",
    "custom_referral_link": "luminousyou"
  },
  {
    "name": "Glow Up Aesthetics",
    "address": "15501 N Dial Blvd, #1050",
    "city": "Scottsdale",
    "state": "AZ",
    "zip_code": 85260,
    "phone": "6239105134",
    "custom_referral_link": "glowupaesthetics"
  },
  {
    "name": "Brows and Beauty",
    "address": "420 Helen Lane",
    "city": "Hamilton",
    "state": "GA",
    "zip_code": 31811,
    "phone": "7063158642",
    "custom_referral_link": "browsandbeauty"
  },
  {
    "name": "Camille Complexion LLC",
    "address": "1675 N FREEDOM BLVD, BUILDING 11 E",
    "city": "Provo",
    "state": "UTAH",
    "zip_code": 84604,
    "phone": "8014720589",
    "custom_referral_link": "camillecomplexion"
  },
  {
    "name": "ReVibe Aesthetics",
    "address": "110 N Minnesota St Suite 7",
    "city": "New Ulm",
    "state": "MN",
    "zip_code": 56073,
    "phone": "507-805-9548",
    "custom_referral_link": "revibeaesthetics"
  },
  {
    "name": "Suede Aesthetics",
    "address": "1139 Highland Avenue",
    "city": "Mankato",
    "state": "Minnesota",
    "zip_code": 56001,
    "phone": "3202266098",
    "custom_referral_link": "suedeaesthetics"
  },
  {
    "name": "Bubble bar spa",
    "address": "1074 East Ave suite U",
    "city": "Chico",
    "state": "CA",
    "zip_code": 95973,
    "phone": "5309667292",
    "custom_referral_link": "bubblebarspa"
  },
  {
    "name": "JessAnne Aesthetics L.L.C.",
    "address": "11851 Bandera rd #115",
    "city": "San Antonio",
    "state": "Tx",
    "zip_code": 78023,
    "phone": "4326380642",
    "custom_referral_link": "jessanneaesthetics"
  },
  {
    "name": "GLOW Beauty Collective",
    "address": "3215 W Lawrence St, Ste 7",
    "city": "Appleton",
    "state": "WI",
    "zip_code": 54914,
    "phone": "9208899478",
    "custom_referral_link": "glowbeauty"
  },
  {
    "name": "Laura Mendoza The Facialist",
    "address": "3091 S Quay St",
    "city": "Kennewick",
    "state": "WA",
    "zip_code": 99338,
    "phone": "5094608154",
    "custom_referral_link": "tranquilwaters"
  },
  {
    "name": "Beauty nurse Nyc",
    "address": "50 Lynbrook Ave",
    "city": "Staten Island",
    "state": "NY",
    "zip_code": 10309,
    "phone": "7186195867",
    "custom_referral_link": "beautynursenyc"
  },
  {
    "name": "Shannon Lee Esthetics",
    "address": "167 madison ave , Suite 506",
    "city": "New york",
    "state": "NY",
    "zip_code": 10016,
    "phone": "6466813892",
    "custom_referral_link": "shannonleeesthetics"
  },
  {
    "name": "Park Place Medical Spa",
    "address": "15615 IN-23 Suite N",
    "city": "Granger",
    "state": "IN",
    "zip_code": 46530,
    "phone": "5748500454",
    "custom_referral_link": "parkplacemedicalspa"
  },
  {
    "name": "Wellbeing Medical Physician Assistant PC",
    "address": "2801 Ocean Park Blvd , #1087",
    "city": "Santa Monica",
    "state": "CA",
    "zip_code": 90405,
    "phone": "4044058488",
    "custom_referral_link": "wellbeingmedical"
  },
  {
    "name": "Lotus Skin + Brow",
    "address": "11 Crestview Ln SE",
    "city": "Rome",
    "state": "GA",
    "zip_code": 30161,
    "phone": "9072024560",
    "custom_referral_link": "lotusskin"
  },
  {
    "name": "Revive Aesthetics and Wellness",
    "address": "220 E. Washington Street Suite B",
    "city": "Rockingham",
    "state": "Nc",
    "zip_code": 28379,
    "phone": "9109951016",
    "custom_referral_link": "reviveaesthetics"
  },
  {
    "name": "Belleza Spa",
    "address": "7200 East Dry Creek Road Suite E105",
    "city": "Centennial",
    "state": "CO",
    "zip_code": 80112,
    "phone": "720-492-7150",
    "custom_referral_link": "bellezaspa"
  },
  {
    "name": "Anissa Skincare Studio",
    "address": "300 Beardsley Lane building D suite #100",
    "city": "Austin",
    "state": "Texas",
    "zip_code": 78746,
    "phone": "512-296-6543",
    "custom_referral_link": "anissaskincare"
  },
  {
    "name": "Cara Luna Skincare",
    "address": "1145 E. Clark",
    "city": "Orcutt",
    "state": "Ca",
    "zip_code": 93455,
    "phone": "8052682323",
    "custom_referral_link": "caralunaskincare"
  },
  {
    "name": "Smart Skin Med Spa",
    "address": "1931 29th Ave S",
    "city": "Homewood",
    "state": "Alabama",
    "zip_code": 35209,
    "phone": "205-968-1301",
    "custom_referral_link": "smartskinmedspa2"
  },
  {
    "name": "Johnson Dermatology",
    "address": "5921 Riley Park Drive",
    "city": "Fort Smith",
    "state": "Arkansas",
    "zip_code": 72916,
    "phone": "479-649-3376",
    "custom_referral_link": "johnsondermatology"
  },
  {
    "name": "HOUSE OF PRESERVATION",
    "address": "3219 North Fitzhugh Avenue",
    "city": "Dallas",
    "state": "TX",
    "zip_code": 75201,
    "phone": "4695713740",
    "custom_referral_link": "houseofpreservation2"
  },
  {
    "name": "FACELAB",
    "address": "12198 SE 158th Ave.",
    "city": "Happy Valley",
    "state": "OR",
    "zip_code": 97086,
    "phone": "5037377268",
    "custom_referral_link": "facelab"
  },
  {
    "name": "Glow within Aesthetics",
    "address": "1975 NE Purser",
    "city": "Bend",
    "state": "OR",
    "zip_code": 97701,
    "phone": "5034591450",
    "custom_referral_link": "glowwithinaesthetics"
  },
  {
    "name": "Femme Beauty ATX",
    "address": "3801 n capital of Texas Hwy, suite 18",
    "city": "Austi",
    "state": "TX",
    "zip_code": 78746,
    "phone": "9292951235",
    "custom_referral_link": "femmebeauty"
  },
  {
    "name": "Elysian Aesthetics",
    "address": "2523 223rd Lane NW",
    "city": "Oak Grove",
    "state": "MN",
    "zip_code": 55011,
    "phone": "651-300-2513",
    "custom_referral_link": "elysianaesthetics"
  },
  {
    "name": "Hailey Frieden Esthetics",
    "address": "2907 S Breeze Dr",
    "city": "Magna",
    "state": "Utah",
    "zip_code": 84044,
    "phone": "8016360970",
    "custom_referral_link": "haileyfriedenesthetics"
  },
  {
    "name": "The Grove Spa",
    "address": "328 w 63rd Street",
    "city": "Kansas City",
    "state": "Missouri",
    "zip_code": 64113,
    "phone": "8168349100",
    "custom_referral_link": "thegrovespa"
  },
  {
    "name": "Majestic Aesthetics & Wellness",
    "address": "1182 Eastland drive N",
    "city": "Ste B",
    "state": "Idaho",
    "zip_code": 83301,
    "phone": "2088860774",
    "custom_referral_link": "majesticaesthetics"
  },
  {
    "name": "Radiance Rx Skin & Aesthetics",
    "address": "2046 Creekside Landing Drive",
    "city": "Apex",
    "state": "North Carolina",
    "zip_code": 27502,
    "phone": "9193034777",
    "custom_referral_link": "radiancerxskin"
  },
  {
    "name": "Navs Esthetics LLC",
    "address": "18568 115th pl se",
    "city": "Renton",
    "state": "WA",
    "zip_code": 98055,
    "phone": "4255031892",
    "custom_referral_link": "navsesthetics"
  },
  {
    "name": "Dream aesthetic",
    "address": "5101 Forest Dr",
    "city": "Columbia",
    "state": "SC",
    "zip_code": 29206,
    "phone": "803-358-8375",
    "custom_referral_link": "dreamaesthetic"
  },
  {
    "name": "NurturHer Aesthetics",
    "address": "6317 McKee Rd Ste 200",
    "city": "Fitchburg",
    "state": "WI",
    "zip_code": 53719,
    "phone": "6083135627",
    "custom_referral_link": "nurturheraesthetics"
  },
  {
    "name": "Tessa Grace Aesthetics",
    "address": "620A E Longview Drive",
    "city": "Appleton",
    "state": "Wisconsin",
    "zip_code": 54911,
    "phone": "9206217251",
    "custom_referral_link": "tessagrace"
  },
  {
    "name": "THE MARINA METHOD at the Dermatology Institute",
    "address": "2001 Santa Monica Blvd. #1160W",
    "city": "Santa Monica",
    "state": "CA",
    "zip_code": 91754,
    "phone": "424-625-8556",
    "custom_referral_link": "marinamethod"
  },
  {
    "name": "Med Spa Express Aesthetics & Wellness",
    "address": "22 3rd Ave NW",
    "city": "Pocahontas",
    "state": "Iowa",
    "zip_code": 50574,
    "phone": "7123357434",
    "custom_referral_link": "medspaexpress"
  },
  {
    "name": "AGLOW Aesthetics",
    "address": "100 Front Avenue",
    "city": "Indianola",
    "state": "MS",
    "zip_code": 38751,
    "phone": "6628367251",
    "custom_referral_link": "aglowaesthetics"
  },
  {
    "name": "Black Lotus Skin Bar",
    "address": "532 main st",
    "city": "Junction city",
    "state": "Wi",
    "zip_code": 54443,
    "phone": "715-991-0911",
    "custom_referral_link": "blacklotusskinbar"
  },
  {
    "name": "Rocky Mountain Beauty Bar",
    "address": "665 Frontage Road Suite 250",
    "city": "Longmont",
    "state": "CO",
    "zip_code": 80504,
    "phone": "720-464-1846",
    "custom_referral_link": "rockymountain"
  },
  {
    "name": "Pretty Please Aesthetics",
    "address": "924 57TH ST",
    "city": "SACRAMENTO",
    "state": "CA",
    "zip_code": 95819,
    "phone": "2156945281",
    "custom_referral_link": "prettyplease"
  },
  {
    "name": "Glow & co.",
    "address": "2135 e. University Dr. suite 113",
    "city": "Mesa",
    "state": "Az",
    "zip_code": 85213,
    "phone": "4802218580",
    "custom_referral_link": "glowco"
  },
  {
    "name": "Christopher Chen M.D. Inc.",
    "address": "4439 Stoneridge Dr. Ste 110",
    "city": "Pleasanton",
    "state": "CA.",
    "zip_code": 94588,
    "phone": "9254612840",
    "custom_referral_link": "christopherchen"
  },
  {
    "name": "Dana Michele Makeup + Aesthetics",
    "address": "9 GLORIA CT",
    "city": "APPLETON",
    "state": "Wisconsin",
    "zip_code": 54915,
    "phone": "8473120071",
    "custom_referral_link": "danamichele"
  },
  {
    "name": "The Aesthetic Studio",
    "address": "3100 E Florence Dr. Suite 101",
    "city": "Meridian",
    "state": "ID",
    "zip_code": 83642,
    "phone": "8013626375",
    "custom_referral_link": "theaestheticstudio"
  },
  {
    "name": "Natasha Bullard Aesthetics",
    "address": "481 Tyler st",
    "city": "Monterey",
    "state": "Ca",
    "zip_code": 93940,
    "phone": "831-750-9511",
    "custom_referral_link": "natashabullard"
  },
  {
    "name": "Lafranceaesthetics",
    "address": "251 west southlake blvd suite 15",
    "city": "Southlake",
    "state": "Texas",
    "zip_code": 76092,
    "phone": "5802639034",
    "custom_referral_link": "lafranceaesthetics"
  },
  {
    "name": "Jazzlene Woodson",
    "address": "428 S Gilbert Rd Suite 103",
    "city": "GILBERT",
    "state": "Arizona",
    "zip_code": 85296,
    "phone": "6027021932",
    "custom_referral_link": "lushskinbabe"
  },
  {
    "name": "LV Snatched Beauty Bar",
    "address": "6468 E Coldwater Bay Dr",
    "city": "Las Vegas",
    "state": "NV",
    "zip_code": 89122,
    "phone": "7028009559",
    "custom_referral_link": "lvsnatched"
  },
  {
    "name": "Lashxesthetic LLC",
    "address": "7019 amber crystal ct",
    "city": "North las vegas",
    "state": "NV",
    "zip_code": 89086,
    "phone": "7022379359",
    "custom_referral_link": "lashxesthetic"
  },
  {
    "name": "Luminescence Aesthetics",
    "address": "14201 Berkshire Lane N",
    "city": "Dayton",
    "state": "minnesota",
    "zip_code": 55327,
    "phone": "763-670-3743",
    "custom_referral_link": "luminescenceaesthetics"
  },
  {
    "name": "Tuscany Retreat",
    "address": "1388 Cambridge Drive",
    "city": "Idaho Falls",
    "state": "ID",
    "zip_code": 83401,
    "phone": "2088211691",
    "custom_referral_link": "tuscanyretreat"
  },
  {
    "name": "Skinwell LLC / SkinWell Studio",
    "address": "133 SW Century Drive Suite 104",
    "city": "Bend",
    "state": "Oregon",
    "zip_code": 97702,
    "phone": "5412137524",
    "custom_referral_link": "skinwellstudio"
  },
  {
    "name": "JOLIE KRISTINE BUDAU",
    "address": "14010 RUE SAINT TROPEZ",
    "city": "Del Mar",
    "state": "California",
    "zip_code": 92014,
    "phone": "8588883018",
    "custom_referral_link": "joliekristine"
  },
  {
    "name": "Smoke and Honey Aesthetics",
    "address": "3939 S McCarran blvd",
    "city": "Reno",
    "state": "NV",
    "zip_code": 89502,
    "phone": "7758422266",
    "custom_referral_link": "smokeandhoney"
  },
  {
    "name": "Beauty by Livie",
    "address": "706 18th Ave S",
    "city": "Nashville",
    "state": "TN",
    "zip_code": 37203,
    "phone": "8603333769",
    "custom_referral_link": "beautybylivie"
  },
  {
    "name": "L.O. Aesthetic Studio",
    "address": "3738 Osage Beach Pkwy Suite 102",
    "city": "Osage Beach",
    "state": "MO",
    "zip_code": 65065,
    "phone": "3192131969",
    "custom_referral_link": "loaestheticstudio"
  },
  {
    "name": "The Glowhive Skin Studio",
    "address": "1301 Lake Air Dr",
    "city": "Waco",
    "state": "Texas",
    "zip_code": 76710,
    "phone": "254-548-5888",
    "custom_referral_link": "glowhive"
  },
  {
    "name": "C&S Aesthetics",
    "address": "19630 Rinaldi Street 369",
    "city": "Porter Ranch",
    "state": "CA",
    "zip_code": 91326,
    "phone": "6265247040",
    "custom_referral_link": "csaesthetics"
  },
  {
    "name": "Eunoia Medispa a physician assistant corp",
    "address": "1528 constitution blvd",
    "city": "Salinas",
    "state": "Ca",
    "zip_code": 93905,
    "phone": "8312108143",
    "custom_referral_link": "eunoiamedispa"
  },
  {
    "name": "Meraki Massage And Skin",
    "address": "1414 S 324th St , Ste B-206",
    "city": "Federal Way",
    "state": "WA",
    "zip_code": 98003,
    "phone": "2532300771",
    "custom_referral_link": "meraki"
  },
  {
    "name": "Kimtox Skin Studio",
    "address": "10020 N. Rodney Parham Rd., Suite C",
    "city": "Little Rock",
    "state": "AR",
    "zip_code": 72227,
    "phone": "5019109522",
    "custom_referral_link": "kimtox"
  },
  {
    "name": "BotoxRN and Medspa Corp.",
    "address": "13511 Southwest Fwy",
    "city": "Sugar Land",
    "state": "Texas",
    "zip_code": 77004,
    "phone": "8322686976",
    "custom_referral_link": "botoxrn"
  },
  {
    "name": "Epic Care",
    "address": "114 La Casa Via #210",
    "city": "Walnut Creek",
    "state": "CA",
    "zip_code": 94598,
    "phone": "9254872843",
    "custom_referral_link": "epiccare"
  },
  {
    "name": "The Mend LLC",
    "address": "PO BOX 1204",
    "city": "Meeker",
    "state": "CO",
    "zip_code": 81641,
    "phone": "9709893226",
    "custom_referral_link": "themend"
  },
  {
    "name": "The Glow Lab",
    "address": "4365 E Pecos Rd Unit 117",
    "city": "Gilbert",
    "state": "AZ",
    "zip_code": 85297,
    "phone": "4807717202",
    "custom_referral_link": "theglowlab"
  },
  {
    "name": "Skin lux the med lounge",
    "address": "12846 south fwy, unit 140",
    "city": "Burleson",
    "state": "Tx",
    "zip_code": 76028,
    "phone": "8176700444",
    "custom_referral_link": null
  },
  {
    "name": "Pure Excellence Esthetics",
    "address": "1172 basalt ridge loop",
    "city": "castle rock",
    "state": "co",
    "zip_code": 80108,
    "phone": "7202821900",
    "custom_referral_link": "pureexcellence"
  },
  {
    "name": "Skincraft LA",
    "address": "14228 Erwin St., Apt. 6",
    "city": "Van Nuys",
    "state": "CA",
    "zip_code": 91403,
    "phone": "4136278294",
    "custom_referral_link": "skincraftla"
  },
  {
    "name": "Vein and Laser Institute",
    "address": "3907 Calumet Ave",
    "city": "Valparaiso",
    "state": "IN",
    "zip_code": 46383,
    "phone": "219-736-8118",
    "custom_referral_link": "veinandlaserinstitute"
  },
  {
    "name": "Skin One Studio",
    "address": "939 Market Court, Unit 1",
    "city": "Vernon Hills",
    "state": "IL",
    "zip_code": 60061,
    "phone": "18152367106",
    "custom_referral_link": "skinonestudio"
  },
  {
    "name": "Cactus Lash & Skin Studio",
    "address": "514 E Pierson St, Unit 2",
    "city": "Phoenix",
    "state": "Arizona",
    "zip_code": 85012,
    "phone": "6024321122",
    "custom_referral_link": "cactuslash"
  },
  {
    "name": "Spa Sway Domain, LLC",
    "address": "11011 Domain Drive Ste 124",
    "city": "Austin",
    "state": "Tx",
    "zip_code": 78758,
    "phone": "5127501114",
    "custom_referral_link": "spasway"
  },
  {
    "name": "Electric Skin Studio",
    "address": "1200 N El Dorado Pl",
    "city": "Tucson",
    "state": "AZ",
    "zip_code": 85715,
    "phone": "5205573584",
    "custom_referral_link": "electricskin"
  },
  {
    "name": "Atrium Aesthetics",
    "address": "1550 Humboldt rd Suite 6",
    "city": "Chico",
    "state": "California",
    "zip_code": 95928,
    "phone": "5307206973",
    "custom_referral_link": "atriumaesthetics"
  },
  {
    "name": "Simply Skin Medspa",
    "address": "317 n Minnesota st",
    "city": "New Ulm",
    "state": "Minnesota",
    "zip_code": 56073,
    "phone": "5077661498",
    "custom_referral_link": "simplyskinmedspa"
  },
  {
    "name": "Skinn Haus",
    "address": "455 San Benito St Suite 28",
    "city": "Hollister",
    "state": "Ca",
    "zip_code": 95023,
    "phone": "8312457422",
    "custom_referral_link": "skinnhaus"
  },
  {
    "name": "New Visage",
    "address": "108 N 11th street",
    "city": "Morehead City",
    "state": "North Carolina",
    "zip_code": 28557,
    "phone": "252-808-2639",
    "custom_referral_link": "newvisage"
  },
  {
    "name": "The Modern Aesthetic",
    "address": "6633 e greenway parkway #2111",
    "city": "Scottsdale",
    "state": "AZ",
    "zip_code": 85254,
    "phone": "6022918350",
    "custom_referral_link": "themodernaesthetic"
  },
  {
    "name": "Agoddess Spa & Wellness, LLC",
    "address": "8080 N.Central Expressway Suite 1250",
    "city": "Dallas",
    "state": "TX",
    "zip_code": 75206,
    "phone": "469-807-1002",
    "custom_referral_link": "agoddessSpa"
  },
  {
    "name": "Remedy Skin Studio",
    "address": "1211 Lake Avenue, Suite 101",
    "city": "Berthoud",
    "state": "Colorado",
    "zip_code": 80513,
    "phone": "970-532-2755",
    "custom_referral_link": "remedyskin"
  },
  {
    "name": "Lux n\u2019 Lavish Esthetics",
    "address": "1694 E. Cheyenne Mtn Blvd",
    "city": "Colorado Springs",
    "state": "Co",
    "zip_code": 80906,
    "phone": "7196619656",
    "custom_referral_link": "luxnlavish"
  },
  {
    "name": "Visag\u00e8 Esthetiqu\u00e8",
    "address": "710 Franklin Avenue",
    "city": "Franklin Square",
    "state": "New York",
    "zip_code": 11010,
    "phone": "5168603100",
    "custom_referral_link": "visageesthetique"
  },
  {
    "name": "Prescribed Health + Beauty",
    "address": "2680 S Val Vista, Suite 140",
    "city": "Gilbert",
    "state": "AZ",
    "zip_code": 85295,
    "phone": "4357578824",
    "custom_referral_link": "prescribedhealth"
  },
  {
    "name": "The Acne Concept",
    "address": "390 Oak Ave, Suite G",
    "city": "CARLSBAD",
    "state": "CA",
    "zip_code": 92011,
    "phone": "8583351137",
    "custom_referral_link": "theacneconcept"
  },
  {
    "name": "Purely Aesthetic PLLC",
    "address": "629 S. Hazel Ct",
    "city": "Gilbert",
    "state": "Arizona",
    "zip_code": 85296,
    "phone": "6025070102",
    "custom_referral_link": "purelyaesthetic"
  },
  {
    "name": "Katrina Skin Studio",
    "address": "128 Enchanted Parkway Suite 106",
    "city": "Saint Louis",
    "state": "Missouri",
    "zip_code": 63021,
    "phone": "6189605596",
    "custom_referral_link": "katrinaskinstudio"
  },
  {
    "name": "OC Skin Vibes",
    "address": "29692 Jarrett Circle",
    "city": "Laguna Niguel",
    "state": "CA",
    "zip_code": 92677,
    "phone": "9493375678",
    "custom_referral_link": "ocskinvibes"
  },
  {
    "name": "ME Aesthetics & Wellness",
    "address": "3093 citrus circle suite 102",
    "city": "Walnut Creek",
    "state": "Ca",
    "zip_code": 94598,
    "phone": "925-250-5155",
    "custom_referral_link": "meaesthetics"
  },
  {
    "name": "Poke Me Pretty",
    "address": "9437 W Weeping Willow Rd",
    "city": "Peoria",
    "state": "AZ",
    "zip_code": 85383,
    "phone": "4802621178",
    "custom_referral_link": "pokemepretty2"
  },
  {
    "name": "Blue Divine Aesthetics",
    "address": "107 West Paces Ferry Road",
    "city": "Atlanta",
    "state": "GA",
    "zip_code": 30305,
    "phone": "4044674232",
    "custom_referral_link": "bluedivineaesthetics"
  },
  {
    "name": "Summerville Medical Spa",
    "address": "299 Midland Parkway",
    "city": "Summerville",
    "state": "SC",
    "zip_code": 29485,
    "phone": "8432857820",
    "custom_referral_link": "summervillemedicalspa"
  },
  {
    "name": "Hydrinity",
    "address": "3039 WALDON PARK DR",
    "city": "Orion Charter Township",
    "state": "MI",
    "zip_code": "48359-1335",
    "phone": "4409154882",
    "custom_referral_link": "testwebsite"
  },
  {
    "name": "SkinRX",
    "address": "361 W Southlake Blvd Ste 120",
    "city": "Southlake",
    "state": "Texas",
    "zip_code": 76006,
    "phone": "817-410-1415",
    "custom_referral_link": "skinrx"
  },
  {
    "name": "LK Esthetics",
    "address": "7357 County Road 5 NW",
    "city": "Princeton",
    "state": "Minnesota",
    "zip_code": 55371,
    "phone": "6127413951",
    "custom_referral_link": "lkesthetics"
  },
  {
    "name": "Skin Fusion Spa",
    "address": "3501 30th Ave, Suite 213",
    "city": "Astoria",
    "state": "NY",
    "zip_code": 11103,
    "phone": "917-979-7029",
    "custom_referral_link": "skinfusion"
  },
  {
    "name": "Glow With Jaz",
    "address": "3628 Walnut Hills Rd. Suite 112",
    "city": "Orange",
    "state": "OH",
    "zip_code": 44122,
    "phone": "2162304222",
    "custom_referral_link": "glowwithjaz"
  },
  {
    "name": "Reign Medical Aesthetics",
    "address": "290 Citrus Tower Blvd, Ste 110",
    "city": "Clermont",
    "state": "FL",
    "zip_code": 34711,
    "phone": "3522414221",
    "custom_referral_link": "reignmedicalaesthetics"
  },
  {
    "name": "Atelier Skin, LLC",
    "address": "4140 CEDAR LN",
    "city": "Medford",
    "state": "OR",
    "zip_code": 97501,
    "phone": "5418401456",
    "custom_referral_link": "atelierskin"
  },
  {
    "name": "Skin Club",
    "address": "403 N L Street Suite C",
    "city": "Dinuba",
    "state": "California",
    "zip_code": 93618,
    "phone": "559-344-3734",
    "custom_referral_link": "skinclub"
  },
  {
    "name": "Michele Aesthetics",
    "address": "7070 Knights Ct, Suite 401",
    "city": "Missouri City",
    "state": "TX",
    "zip_code": 77459,
    "phone": "5047298049",
    "custom_referral_link": "micheleaesthetics"
  },
  {
    "name": "Plastics Medpa",
    "address": "3501 N Scottsdale Rd STE 226,",
    "city": "Scottsdale",
    "state": "Arizona",
    "zip_code": 85251,
    "phone": "4809313008",
    "custom_referral_link": "plasticsmedpa"
  },
  {
    "name": "tesia lee esthetics",
    "address": "13627 Chandler Blvd",
    "city": "Sherman Oaks",
    "state": "CA",
    "zip_code": 91401,
    "phone": "6262428730",
    "custom_referral_link": "tesialeeesthetics"
  },
  {
    "name": "The Aesthetics Lounge and Spa",
    "address": "12301 Lake Underhill Road. STE 105",
    "city": "Orlando",
    "state": "FL",
    "zip_code": 32828,
    "phone": "407-347-4770",
    "custom_referral_link": "theaestheticslounge"
  },
  {
    "name": "Creole Contour Aesthetics",
    "address": "11617 Spring Cypress Rd, Unit A, Suite 15",
    "city": "Tomball",
    "state": "TX",
    "zip_code": 77377,
    "phone": "8326452844",
    "custom_referral_link": "creolecontour"
  },
  {
    "name": "Francheska Esthetics",
    "address": "4012 Cortez Road W #2206",
    "city": "Bradenton",
    "state": "Florida",
    "zip_code": 34210,
    "phone": "941-962-7450",
    "custom_referral_link": "francheskaesthetics"
  },
  {
    "name": "Revive + Bloom Aesthetics",
    "address": "636 Delaware Ave",
    "city": "Delmar",
    "state": "NY",
    "zip_code": 12054,
    "phone": "5184247429",
    "custom_referral_link": "revivebloom"
  },
  {
    "name": "Skin Rituals by Jess",
    "address": "756 Warrendale Ave",
    "city": "Simi Valley",
    "state": "CA",
    "zip_code": "93065-7050",
    "phone": "8054158439",
    "custom_referral_link": "skinrituals"
  },
  {
    "name": "Raw Beauty Skin + Wellness Spa",
    "address": "505 S. Main St",
    "city": "Stillwater",
    "state": "OK",
    "zip_code": 74074,
    "phone": "6205154328",
    "custom_referral_link": "rawbeauty"
  },
  {
    "name": "Werschler Aesthetics",
    "address": "324 South Sherman Street",
    "city": "Spokane",
    "state": "WA",
    "zip_code": 99202,
    "phone": "6783466605",
    "custom_referral_link": "werschleraesthetics"
  },
  {
    "name": "Courtney Jorgensen",
    "address": "1438 w 11150 s",
    "city": "South Jordan",
    "state": "UT",
    "zip_code": 84095,
    "phone": "435-229-7583",
    "custom_referral_link": "courtneyjorgensen"
  },
  {
    "name": "Align Aesthetics",
    "address": "3434 Houma Blvd, Suite 201",
    "city": "Metairie",
    "state": "LA",
    "zip_code": 70006,
    "phone": "504-547-7463",
    "custom_referral_link": "alignaesthetics"
  },
  {
    "name": "Blush Aesthetics",
    "address": "808 Beech St",
    "city": "Valparaiso",
    "state": "IN",
    "zip_code": 46383,
    "phone": "2192412850",
    "custom_referral_link": "blushaesthetics"
  },
  {
    "name": "Here She Glows",
    "address": "28835 Oakpath Drive",
    "city": "Agoura Hills",
    "state": "CA",
    "zip_code": 91301,
    "phone": "8184145777",
    "custom_referral_link": "heresheglows"
  },
  {
    "name": "Sands Aesthetics + Plastic Surgery",
    "address": "3100 Galleria Dr., Suite 302",
    "city": "Metairie",
    "state": "La",
    "zip_code": 70001,
    "phone": "504-888-4297",
    "custom_referral_link": "sandsaesthetics"
  },
  {
    "name": "Ophelia Aesthetics",
    "address": "17705 Hale Ave suite I-5",
    "city": "Morgan Hill",
    "state": "California",
    "zip_code": 95037,
    "phone": "4086075428",
    "custom_referral_link": "opheliaaesthetics"
  },
  {
    "name": "Roman Esthetics",
    "address": "5115 W Bell Rd",
    "city": "Glendale",
    "state": "AZ",
    "zip_code": 85308,
    "phone": "6029001241",
    "custom_referral_link": "romanesthetics"
  },
  {
    "name": "Glow Getter",
    "address": "97 Storer Avenue Unit D2",
    "city": "Staten Island",
    "state": "New York",
    "zip_code": 10307,
    "phone": "718-569-5261",
    "custom_referral_link": "glowgetter"
  },
  {
    "name": "Skin Aesthetics by Erika",
    "address": "5320 Douglas blvd. #110",
    "city": "Granite Bay",
    "state": "CA",
    "zip_code": 95746,
    "phone": "9163059100",
    "custom_referral_link": "skinaestheticsbyerika"
  },
  {
    "name": "Faces Advanced Skincare",
    "address": "250 Vallombrosa Ave Suite 125",
    "city": "Chico",
    "state": "California",
    "zip_code": 95928,
    "phone": "8056379534",
    "custom_referral_link": "facesadvancedskincare"
  },
  {
    "name": "Avilla Esthetics",
    "address": "4101 Tully Rd Ste 101",
    "city": "Modesto",
    "state": "Ca",
    "zip_code": 95356,
    "phone": "2095415744",
    "custom_referral_link": "avillaesthetics"
  },
  {
    "name": "Clinic Concierge",
    "address": "2966 Park Hill Drive",
    "city": "Fort Worth",
    "state": "texas",
    "zip_code": 76109,
    "phone": "(817) 697-1401",
    "custom_referral_link": "clinicconcierge"
  },
  {
    "name": "Moonphase Esthetics",
    "address": "4436 S Harvard Ave Suite 3",
    "city": "Tulsa",
    "state": "OK",
    "zip_code": 74135,
    "phone": "9188845733",
    "custom_referral_link": "moonphaseesthetics"
  },
  {
    "name": "Daydreamskincare.amira",
    "address": "9575 Reseda Blvd Apt 157",
    "city": "Northridge",
    "state": "CA",
    "zip_code": 91324,
    "phone": "8187446463",
    "custom_referral_link": "daydreamskincare"
  },
  {
    "name": "Renewal Aesthetics and Sexual Wellness",
    "address": "11762 S State St",
    "city": "Draper",
    "state": "Utah",
    "zip_code": 84020,
    "phone": "8015208458",
    "custom_referral_link": "renewalaesthetics"
  },
  {
    "name": "Refined Aesthetics and Wellness",
    "address": "1594 N 160 W Suite 120",
    "city": "Logan",
    "state": "UT",
    "zip_code": 84341,
    "phone": "4358819962",
    "custom_referral_link": "refinedaesthetics"
  },
  {
    "name": "Angel Rose Aesthetics  & Wellness",
    "address": "423 Weathersby Rd, Suite 160",
    "city": "Hattiesburg",
    "state": "MS",
    "zip_code": 39402,
    "phone": "7693906407",
    "custom_referral_link": "angelrose"
  },
  {
    "name": "Desired Skn",
    "address": "11216 Sibert St.",
    "city": "Santa Fe Springs",
    "state": "CA",
    "zip_code": 90670,
    "phone": "562)484-1084",
    "custom_referral_link": "desiredskn"
  },
  {
    "name": "ENLIVEN Medical",
    "address": "4646 s highland dr.    STE 100",
    "city": "Millcreek",
    "state": "UT",
    "zip_code": 84117,
    "phone": "8019100853",
    "custom_referral_link": "enlivenmedical"
  },
  {
    "name": "Abeille Aesthetics",
    "address": "1214 13th Avenue",
    "city": "Grafton",
    "state": "WI",
    "zip_code": 53024,
    "phone": "(414) 416-8769",
    "custom_referral_link": "abeilleaesthetics"
  },
  {
    "name": "Broadway Med Spa",
    "address": "9777 S Yosemite Street, Suite 220",
    "city": "Lone Tree",
    "state": "Colorado",
    "zip_code": 80124,
    "phone": "303-680-8989",
    "custom_referral_link": "broadwaymedspa"
  },
  {
    "name": "Glamorous Beauties Esthetics",
    "address": "971 Well Springs Rd Apt 23N",
    "city": "midvale",
    "state": "Utah",
    "zip_code": 84047,
    "phone": "8018755366",
    "custom_referral_link": "glamorousbeauties"
  },
  {
    "name": "Face Form Aesthetics",
    "address": "623 Stewart Ave Suite 106",
    "city": "Garden City",
    "state": "NY",
    "zip_code": 11530,
    "phone": "5165008353",
    "custom_referral_link": "faceform"
  },
  {
    "name": "Skin360",
    "address": "3031 W March Ln Suite # 104-S",
    "city": "Stockton",
    "state": "Ca",
    "zip_code": 95219,
    "phone": "2095057804",
    "custom_referral_link": "skin360"
  },
  {
    "name": "Revitalize Medical Spa",
    "address": "10137 Riverside Parkway",
    "city": "Tulsa",
    "state": "Oklahoma",
    "zip_code": 74137,
    "phone": "918.409.2604",
    "custom_referral_link": "revitalizemedicalspa"
  },
  {
    "name": "Sace Aesthetics",
    "address": "5600 E Russell Rd, Unit 136",
    "city": "Las Vegas",
    "state": "NV",
    "zip_code": 89122,
    "phone": "7024179300",
    "custom_referral_link": "saceaesthetics"
  },
  {
    "name": "Skin By Lexie",
    "address": "45 Quail Ct",
    "city": "Walnut Creek",
    "state": "CA",
    "zip_code": 94596,
    "phone": "9252709685",
    "custom_referral_link": "skinbylexie"
  },
  {
    "name": "Elevate Esthetics",
    "address": "3947 E. Dartmouth St.",
    "city": "Mesa",
    "state": "AZ",
    "zip_code": 85205,
    "phone": "4807378258",
    "custom_referral_link": "elevateesthetics"
  },
  {
    "name": "Extraordinary Beauty Spa",
    "address": "1901 4th ave",
    "city": "san diego",
    "state": "ca",
    "zip_code": 92101,
    "phone": "858-832-0172",
    "custom_referral_link": "extraordinarybeautyspa"
  },
  {
    "name": "NUGlow by Meg",
    "address": "22309 641st ave",
    "city": "Gibbon",
    "state": "MN",
    "zip_code": 55335,
    "phone": "5072760324",
    "custom_referral_link": "nuglow"
  },
  {
    "name": "Y Plastic Surgery",
    "address": "3330 Preston Ridge Rd.",
    "city": "Alpharetta",
    "state": "GA",
    "zip_code": 30005,
    "phone": "4048224402",
    "custom_referral_link": "yplasticsurgery"
  },
  {
    "name": "Moksha Aesthetics",
    "address": "10220 River Rd",
    "city": "Potomac",
    "state": "MD",
    "zip_code": 20854,
    "phone": "7274927650",
    "custom_referral_link": "mokshaaesthetics"
  },
  {
    "name": "Sade Skin Co",
    "address": "6780 Jamestown Drive",
    "city": "Alpharetta",
    "state": "GA",
    "zip_code": 300005,
    "phone": "4708679780",
    "custom_referral_link": "sadeskinco"
  },
  {
    "name": "Canova Aesthetics",
    "address": "230 W King St",
    "city": "Martinsburg",
    "state": "WV",
    "zip_code": 25401,
    "phone": "6814467038",
    "custom_referral_link": "canovaaesthetics"
  },
  {
    "name": "theKCesti LLC",
    "address": "441 E 19th St.",
    "city": "Kansas City",
    "state": "Missouri",
    "zip_code": 64108,
    "phone": "8165603454",
    "custom_referral_link": "thekcesti"
  },
  {
    "name": "The Body Lab",
    "address": "2100 Dr Martin Luther King Jr St N, Unit C",
    "city": "ST. PETERSBURG",
    "state": "FL",
    "zip_code": 33703,
    "phone": "7272786601",
    "custom_referral_link": "thebodylab"
  },
  {
    "name": "The C Studio Medical Associates, Inc.",
    "address": "27674 Newhall Ranch Rd C85",
    "city": "Valencia",
    "state": "California",
    "zip_code": 91355,
    "phone": "8184815340",
    "custom_referral_link": "cstudio"
  },
  {
    "name": "Aneu Beauty LLC",
    "address": "226 Myrtle Street E, Ste 1A",
    "city": "Stillwater",
    "state": "Minnesota",
    "zip_code": 55082,
    "phone": "6513230554",
    "custom_referral_link": "aneubeauty"
  },
  {
    "name": "Beauty By Brit",
    "address": "101 E Main St, Unit 102",
    "city": "Monroe",
    "state": "WA",
    "zip_code": 98272,
    "phone": "4256471651",
    "custom_referral_link": "beautybybrit"
  },
  {
    "name": "HONEY ROSE AESTHETICS",
    "address": "8114 112th Street Court East",
    "city": "Puyallup",
    "state": "WA",
    "zip_code": 98373,
    "phone": "2537532332",
    "custom_referral_link": "honeyrose"
  },
  {
    "name": "All Skin Aesthetics",
    "address": "6750 W. Thunderbird Rd B104",
    "city": "Peoria",
    "state": "AZ",
    "zip_code": 85381,
    "phone": "6027505989",
    "custom_referral_link": "allskin"
  },
  {
    "name": "The Spa face & body",
    "address": "1113 15th Street",
    "city": "Lawrenceville",
    "state": "IL",
    "zip_code": 62439,
    "phone": "6189434426",
    "custom_referral_link": "thespa"
  },
  {
    "name": "Esthetic Glow",
    "address": "6552 Bolsa Ave, Ste E",
    "city": "Huntington Beach",
    "state": "CA",
    "zip_code": 92647,
    "phone": "7143175885",
    "custom_referral_link": "estheticglow"
  },
  {
    "name": "Beauty Skin and Laser Studio",
    "address": "1905 Townehouse Dr",
    "city": "Coram",
    "state": "NY",
    "zip_code": 11727,
    "phone": "6318163233",
    "custom_referral_link": "beautyskin"
  },
  {
    "name": "Aestheticsbyhadil",
    "address": "889 Date Street, Unit 402",
    "city": "San Diego",
    "state": "CA",
    "zip_code": 92101,
    "phone": "7603332336",
    "custom_referral_link": "aestheticsbyhadil"
  },
  {
    "name": "RefineU MedSpa",
    "address": "13301 N. Meridian Ave Suite 300A",
    "city": "Oklahoma City",
    "state": "Oklahoma",
    "zip_code": 73120,
    "phone": "4058495391",
    "custom_referral_link": "refineumedspa"
  },
  {
    "name": "Holaday Aesthetics",
    "address": "1214 Frederick Ave.",
    "city": "St. Joseph",
    "state": "MO",
    "zip_code": 64501,
    "phone": "8162445430",
    "custom_referral_link": "holadayaesthetics"
  },
  {
    "name": "Zora Beauty LLC",
    "address": "559 S. Deseret Dr. Suite 102",
    "city": "Kaysville, UT",
    "state": "UT",
    "zip_code": "84037-1227",
    "phone": "385-209-2912",
    "custom_referral_link": "zorabeauty"
  },
  {
    "name": "Haus of Aesthetics",
    "address": "705 E. 900 S.",
    "city": "Salt Lake City",
    "state": "UT",
    "zip_code": 84105,
    "phone": "8012441760",
    "custom_referral_link": "hausofaesthetics"
  },
  {
    "name": "Bare complexion acne and skincare",
    "address": "300 E Santa Clara St, Suite 108",
    "city": "Ventura",
    "state": "CA",
    "zip_code": 93001,
    "phone": "8056563724",
    "custom_referral_link": "barecomplexion"
  },
  {
    "name": "Genesis Med Spa",
    "address": "255 Boderman Lane",
    "city": "Bloomsdale",
    "state": "MO",
    "zip_code": 63627,
    "phone": "5734839700",
    "custom_referral_link": "genesismedspa"
  },
  {
    "name": "Injectology Aesthetics",
    "address": "1408 Live Oak Blvd, Suite C",
    "city": "Yuba City",
    "state": "CA",
    "zip_code": 95991,
    "phone": "5308226105",
    "custom_referral_link": "injectology"
  },
  {
    "name": "Olive You Aesthetics",
    "address": "210 Hi Point Road",
    "city": "Chesterfield",
    "state": "Missouri",
    "zip_code": 63005,
    "phone": "3144021989",
    "custom_referral_link": "oliveyouaesthetics"
  },
  {
    "name": "Amanda Taylor Esthetics",
    "address": "6960 Zelzah Ave",
    "city": "Reseda",
    "state": "CA",
    "zip_code": 91335,
    "phone": "8184396793",
    "custom_referral_link": "amandataylor"
  },
  {
    "name": "Medical Aesthetic Art Institute",
    "address": "640 E 700 S",
    "city": "St George",
    "state": "UT",
    "zip_code": 84770,
    "phone": "4359228330",
    "custom_referral_link": "medicalaesthetic"
  },
  {
    "name": "Everyday Esthetics",
    "address": "207 N Gilbert Rd Ste 103",
    "city": "Gilbert",
    "state": "AZ",
    "zip_code": 85234,
    "phone": "4805291111",
    "custom_referral_link": "everydayesthetics"
  },
  {
    "name": "Redeeming Radiance Skin Studio",
    "address": "1827 McGee Street, unit h",
    "city": "Kansas City",
    "state": "MO",
    "zip_code": 64108,
    "phone": "4029814900",
    "custom_referral_link": "redeemingradiance"
  },
  {
    "name": "Peaches Aren\u2019t Perfect",
    "address": "3007 E Cruise Way",
    "city": "Salt Lake City",
    "state": "UT",
    "zip_code": 84109,
    "phone": "2069092631",
    "custom_referral_link": "peaches"
  },
  {
    "name": "REV aesthetics",
    "address": "3900 Market Street",
    "city": "Camp Hill",
    "state": "Pennsylvania",
    "zip_code": 17011,
    "phone": "7177125729",
    "custom_referral_link": "rev"
  },
  {
    "name": "K*SPENCE AESTHETICS",
    "address": "2121 Newcastle Ave. STE.C",
    "city": "Cardiff by the Sea",
    "state": "California",
    "zip_code": 92007,
    "phone": "7602163033",
    "custom_referral_link": "kspence"
  },
  {
    "name": "Connies Skin Solutions LLC",
    "address": "59-136 Kamehameha hwy",
    "city": "Haleiwa",
    "state": "HI",
    "zip_code": 96712,
    "phone": "8086381898",
    "custom_referral_link": "conniesskinsolutions"
  },
  {
    "name": "Skin Restore",
    "address": "312, Avenida De La Estrella",
    "city": "San Clemente",
    "state": "CA",
    "zip_code": 92672,
    "phone": "9496900094",
    "custom_referral_link": "skinrestore"
  },
  {
    "name": "BioImage",
    "address": "6200 Regional Plaza Suite 1600",
    "city": "Abilene",
    "state": "Texas",
    "zip_code": 79606,
    "phone": "325-665-6782",
    "custom_referral_link": "bioimage"
  },
  {
    "name": "Bare Esthetics",
    "address": "105-09 Metropolitan Ave",
    "city": "Forest Hills",
    "state": "NY",
    "zip_code": 11375,
    "phone": "9172545115",
    "custom_referral_link": "bareesthetics2"
  },
  {
    "name": "Talia Padilla Esthetics",
    "address": "1015 Holly Dr",
    "city": "Lodi",
    "state": "Ca",
    "zip_code": 95240,
    "phone": "2093296100",
    "custom_referral_link": "Taliapadilla"
  },
  {
    "name": "Prescription Aesthetic and Wellness Spa",
    "address": "700 Montgomery Hwy, Suite 230",
    "city": "Vestavia",
    "state": "AL",
    "zip_code": 35216,
    "phone": "205-908-0748",
    "custom_referral_link": "prescriptionaesthetic"
  },
  {
    "name": "AIVI Aesthetics Skin Health Clinic",
    "address": "28720 Roadside Dr Ste 373",
    "city": "Agoura Hills",
    "state": "CA",
    "zip_code": 91301,
    "phone": "8188519900",
    "custom_referral_link": "aiviaesthetics"
  },
  {
    "name": "Gl\u00f6",
    "address": "6700 Indiana Ave, Suite 210",
    "city": "Riverside",
    "state": "CA",
    "zip_code": 92506,
    "phone": "9513478555",
    "custom_referral_link": "glo"
  },
  {
    "name": "Pure Vitality Med Spa",
    "address": "113 Renee Ford Rd",
    "city": "Locust",
    "state": "NC",
    "zip_code": 28097,
    "phone": "704-985-6185",
    "custom_referral_link": "purevitality"
  },
  {
    "name": "Lillie Aesthetics x Vital Skin",
    "address": "5010 Clifford Road",
    "city": "Perry Hall",
    "state": "MD",
    "zip_code": 21128,
    "phone": "4102999145",
    "custom_referral_link": "lillieaesthetics"
  },
  {
    "name": "Assembled Esthetics",
    "address": "5622 Warner Drive",
    "city": "Brandon",
    "state": "Mississippi",
    "zip_code": 39042,
    "phone": "6015407874",
    "custom_referral_link": "assembledesthetics"
  },
  {
    "name": "Skin by Sylvie",
    "address": "9150 Wilshire Blvd, Suite 306",
    "city": "Beverly Hills",
    "state": "CA",
    "zip_code": 90212,
    "phone": "3234506142",
    "custom_referral_link": "skinbysylvie"
  },
  {
    "name": "The Grove Spa",
    "address": "328 W 63rd St",
    "city": "KANSAS CITY",
    "state": "MO",
    "zip_code": 64113,
    "phone": "816-834-9100",
    "custom_referral_link": "grovespa"
  },
  {
    "name": "Alpenglow Health Collective",
    "address": "2355 Old Trail Road, Apt 4",
    "city": "Avon",
    "state": "CO",
    "zip_code": 81620,
    "phone": "8435306541",
    "custom_referral_link": "alpenglow"
  },
  {
    "name": "Honor\u00e9 Skin Clinic",
    "address": "3635 S Val Vista Dr. Suite 203",
    "city": "Gilbert",
    "state": "AZ",
    "zip_code": 85297,
    "phone": "4805169468",
    "custom_referral_link": "rzmanagement"
  },
  {
    "name": "Corner Stone Spa Salon",
    "address": "213 S. Division St",
    "city": "Stoughton",
    "state": "Wisconsin",
    "zip_code": 53589,
    "phone": "6088735542",
    "custom_referral_link": "cornerstone"
  },
  {
    "name": "Nashville Skin Studio",
    "address": "9160 Carothers parkway suite 101",
    "city": "Franklin",
    "state": "Tennessee",
    "zip_code": 37067,
    "phone": "6158159571",
    "custom_referral_link": "nashvilleskinstudio"
  },
  {
    "name": "Pack Med Spa",
    "address": "1217 Oak Knoll Dr,",
    "city": "Fort Worth",
    "state": "Texas",
    "zip_code": 76117,
    "phone": "8178316141",
    "custom_referral_link": "packmedspa"
  },
  {
    "name": "L Wellness",
    "address": "81 Highland Ave Suite 240",
    "city": "Bethlehem",
    "state": "PA",
    "zip_code": 18017,
    "phone": "6109369155",
    "custom_referral_link": "lwellness"
  },
  {
    "name": "\u00c1ine Healthcare",
    "address": "732 E. Warner Rd",
    "city": "Gilbert",
    "state": "AZ",
    "zip_code": 85296,
    "phone": "480-939-3230",
    "custom_referral_link": "ainehealthcare"
  },
  {
    "name": "Sunny skincare studio",
    "address": "1896 S 52 E",
    "city": "Idaho falls",
    "state": "IDAHO",
    "zip_code": 83401,
    "phone": "2085697015",
    "custom_referral_link": "sunnyskincare"
  },
  {
    "name": "Angel Aesthetics",
    "address": "3400 E Bayaud Ave Suite 333",
    "city": "Denver",
    "state": "Colorado",
    "zip_code": 80209,
    "phone": "303-709-9026",
    "custom_referral_link": "angelaesthetics"
  },
  {
    "name": "Skin By Women",
    "address": "4-901 Kuhio Hwy, Suite G",
    "city": "Kapa\u02bba",
    "state": "Hawaii",
    "zip_code": 96746,
    "phone": "(808) 346-0939",
    "custom_referral_link": "skinbywomen"
  },
  {
    "name": "Saltz Plastic Surgery & Spa Vitoria",
    "address": "5445 South Highland Dr",
    "city": "Salt Lake City",
    "state": "Utah",
    "zip_code": 84117,
    "phone": "8012749500",
    "custom_referral_link": "saltzplasticsurgery"
  },
  {
    "name": "J\u2019ADE FACE AND BODY",
    "address": "190 Keawe St. Ste 30",
    "city": "Hilo",
    "state": "Hawaii",
    "zip_code": 96720,
    "phone": "(808)304-1913",
    "custom_referral_link": "jadeface"
  },
  {
    "name": "Jalalabadi Plastic Surgery",
    "address": "416 N Bedford Dr., Ste.311",
    "city": "Beverly Hills",
    "state": "CA",
    "zip_code": 90210,
    "phone": "(310) 620-2111",
    "custom_referral_link": "jalalabadi"
  },
  {
    "name": "NELLY B BEAUTY STUDIO",
    "address": "268 N LINCOLN AVE #9",
    "city": "CORONA",
    "state": "CA",
    "zip_code": 92882,
    "phone": "909-999-2866",
    "custom_referral_link": "nellyb"
  },
  {
    "name": "Lake Travis Laser Skincare & Aesthetics",
    "address": "107 RR 620 S Unit 202",
    "city": "Lakeway",
    "state": "Texas",
    "zip_code": 78734,
    "phone": "512-766-9396",
    "custom_referral_link": "laketravis"
  },
  {
    "name": "A Nu U Aesthetics",
    "address": "285 N. NY 303   suite #14",
    "city": "Congers",
    "state": "NY",
    "zip_code": 10920,
    "phone": "9149064782",
    "custom_referral_link": "anuu"
  },
  {
    "name": "Lisa Blu Beauty",
    "address": "15 Tirremia Drive",
    "city": "Dana Point",
    "state": "Ca",
    "zip_code": 92629,
    "phone": "7608314293",
    "custom_referral_link": "lisablu"
  },
  {
    "name": "Thrive Aesthetics and Wellness",
    "address": "6405 S 3000 E, Ste 101 Room 9",
    "city": "Holladay",
    "state": "UT",
    "zip_code": 84121,
    "phone": "801-209-7299",
    "custom_referral_link": "thriveaesthetics"
  },
  {
    "name": "J Marie Skin Studio",
    "address": "1125 Neon Forest Cir #100",
    "city": "Longmont",
    "state": "CO",
    "zip_code": 80504,
    "phone": "303-641-8670",
    "custom_referral_link": "jmarie"
  },
  {
    "name": "DMC Aesthetics",
    "address": "10042 E Old Vail Road",
    "city": "Tucson",
    "state": "Az",
    "zip_code": 85747,
    "phone": "520-240-2634",
    "custom_referral_link": "dmc"
  },
  {
    "name": "Staci Christie Skincare",
    "address": "317 N. El Camino Real, Suite 102",
    "city": "Encinitas",
    "state": "CA",
    "zip_code": 92024,
    "phone": "7606330123",
    "custom_referral_link": "stacichristie"
  },
  {
    "name": "Mindful Women Spa & Medical",
    "address": "1525 East 6000 South, Suite D",
    "city": "South Ogden",
    "state": "Utah",
    "zip_code": 84405,
    "phone": "8013375818",
    "custom_referral_link": "mindfulwomen"
  },
  {
    "name": "Kore Aesthetics",
    "address": "2450 S 4th Ave #110",
    "city": "YUMA",
    "state": "AZ",
    "zip_code": 85364,
    "phone": "9285816608",
    "custom_referral_link": "koreaesthetics"
  },
  {
    "name": "Deosoli Beauty",
    "address": "3775 S Chaparral Rd",
    "city": "Apache Junction",
    "state": "AZ",
    "zip_code": 85119,
    "phone": "4802749945",
    "custom_referral_link": "deosolibeauty"
  },
  {
    "name": "Shear magic and more",
    "address": "253 Bill Brice Lane",
    "city": "Leakey",
    "state": "TX",
    "zip_code": 78873,
    "phone": "2105913925",
    "custom_referral_link": "shearmagic"
  },
  {
    "name": "ZK Aesthetics",
    "address": "1675 Alhambra Blvd",
    "city": "Sacramento",
    "state": "CA",
    "zip_code": 95816,
    "phone": "9165880898",
    "custom_referral_link": "zkaesthetics"
  },
  {
    "name": "Modern Aesthetics and Wellness",
    "address": "8735 Sierra College Blvd Suite 100",
    "city": "Roseville",
    "state": "CA",
    "zip_code": 95661,
    "phone": "9169533248",
    "custom_referral_link": "modernaesthetics"
  },
  {
    "name": "Celestial Aesthetics",
    "address": "115 W 6th St",
    "city": "Leadville",
    "state": "CO",
    "zip_code": 80461,
    "phone": "9704716632",
    "custom_referral_link": "celestialaesthetics"
  },
  {
    "name": "DMC Aesthetics",
    "address": "10042 E Old Vail Road",
    "city": "Tucson",
    "state": "Az",
    "zip_code": 85747,
    "phone": "520-240-2634",
    "custom_referral_link": "dmcaesthetics"
  },
  {
    "name": "MELA Medical Spa",
    "address": "5855 Creek Station Drive",
    "city": "Pensacola",
    "state": "FL",
    "zip_code": 32504,
    "phone": "8503751272",
    "custom_referral_link": "melamedical"
  },
  {
    "name": "Morgan\u2019s Beauty Bar",
    "address": "825 Highway 12 West",
    "city": "Kosciusko",
    "state": "Mississippi",
    "zip_code": 39090,
    "phone": "6019068555",
    "custom_referral_link": "morgansbeauty"
  },
  {
    "name": "Aesthetics by Meg",
    "address": "8642 East Hillview Street",
    "city": "Mesa",
    "state": "AZ",
    "zip_code": 85207,
    "phone": "4356596901",
    "custom_referral_link": "aestheticsbymeg"
  },
  {
    "name": "Beautiful Med Spa",
    "address": "901 S. Coast Dr. Unit 120B, Studio 14",
    "city": "Costa Mesa",
    "state": "CA",
    "zip_code": 92626,
    "phone": "7148558958",
    "custom_referral_link": "beautifulmedspa"
  },
  {
    "name": "The Aesthetic Journey",
    "address": "647 Camino De Los Mares, #224",
    "city": "San Clemente",
    "state": "CA",
    "zip_code": 92673,
    "phone": "7604200223",
    "custom_referral_link": "theaestheticjourney"
  },
  {
    "name": "Evolve Skin Spa + Wellness",
    "address": "3044 Harding Street",
    "city": "Carlsbad",
    "state": "CA",
    "zip_code": 92008,
    "phone": "7605761558",
    "custom_referral_link": "evolveskin"
  },
  {
    "name": "Elite Aesthetics Skin Clinic",
    "address": "2298 W Horizon Ridge Pkwy #209",
    "city": "Henderson",
    "state": "NV",
    "zip_code": 89052,
    "phone": "7025306408",
    "custom_referral_link": "eliteaesthetics"
  },
  {
    "name": "Syree Aesthetics",
    "address": "21 Ryerson Ave",
    "city": "Paterson",
    "state": "NEW JERSEY",
    "zip_code": "07502",
    "phone": "8626688681",
    "custom_referral_link": "syreeaesthetics"
  },
  {
    "name": "Aimora",
    "address": "900 Valley Rd Unit B8",
    "city": "Clifton",
    "state": "NJ",
    "zip_code": "07013",
    "phone": "9732966977",
    "custom_referral_link": "aimora"
  },
  {
    "name": "The Skin Sanctum",
    "address": "2048 Larimer St Suite 200",
    "city": "Denver",
    "state": "CO",
    "zip_code": 80205,
    "phone": "9894151261",
    "custom_referral_link": "skinsanctum"
  },
  {
    "name": "5280 Vitality Aesthetics & Wellness",
    "address": "8751 E Hampden Avenue, #A3",
    "city": "Denver",
    "state": "CO",
    "zip_code": 80231,
    "phone": "7207982005",
    "custom_referral_link": "vitality"
  },
  {
    "name": "Face to Face Spa",
    "address": "35 Goodman Rd W, Ste F",
    "city": "Southaven",
    "state": "MS",
    "zip_code": 38671,
    "phone": "3053323182",
    "custom_referral_link": "facetoface"
  },
  {
    "name": "K2 Aesthetics and Wellness",
    "address": "1276 E. George Washington Blvd",
    "city": "St. George",
    "state": "UT",
    "zip_code": 84790,
    "phone": "4356685018",
    "custom_referral_link": "k2aesthetics"
  },
  {
    "name": "Inner beauty MD",
    "address": "92 delaware ave",
    "city": "dumont",
    "state": "new jersey",
    "zip_code": "07628",
    "phone": "9088381471",
    "custom_referral_link": "innerbeauty"
  },
  {
    "name": "SkinScience Medical Spa",
    "address": "140 Gregory Lane Suite 290",
    "city": "Pleasant Hill",
    "state": "Ca",
    "zip_code": 94523,
    "phone": "9253342210",
    "custom_referral_link": "skinscience"
  },
  {
    "name": "St. George MEDSPA",
    "address": "348 n bluff street, 102",
    "city": "st.george",
    "state": "UT",
    "zip_code": 84770,
    "phone": "4354140722",
    "custom_referral_link": "stgeorge"
  },
  {
    "name": "St George Med Spa",
    "address": "348 N Bluff St st 102",
    "city": "st George",
    "state": "Utah",
    "zip_code": 84770,
    "phone": "4354140722",
    "custom_referral_link": "stgseorgemedspa"
  },
  {
    "name": "Kalliste Esthetics",
    "address": "201 s Wilcox st",
    "city": "Castle rock",
    "state": "Co",
    "zip_code": 80104,
    "phone": "8033949590",
    "custom_referral_link": "kalliste"
  },
  {
    "name": "The Beauty Bar MN",
    "address": "5338 Rose Road",
    "city": "Hermantown",
    "state": "MN",
    "zip_code": 55811,
    "phone": "218-341-0983",
    "custom_referral_link": "beautybar"
  },
  {
    "name": "Walter J. Joseph, MD",
    "address": "1123 N Formosa Ave #5",
    "city": "West Hollywood",
    "state": "CA",
    "zip_code": 90046,
    "phone": "2019134763",
    "custom_referral_link": "walterjjoseph"
  },
  {
    "name": "Shi Shi Aesthetics LLC",
    "address": "45 S Harrison St",
    "city": "Denver",
    "state": "CO",
    "zip_code": 80209,
    "phone": "3033744151",
    "custom_referral_link": "shishi"
  },
  {
    "name": "Leo Beauty Aesthetics",
    "address": "9475 s rainbow blvd",
    "city": "Las vegas",
    "state": "NV",
    "zip_code": 89139,
    "phone": "7024093967",
    "custom_referral_link": "leobeauty"
  },
  {
    "name": "SkinCareProfessor",
    "address": "1110 south Swall drive",
    "city": "Los Angeles",
    "state": "CA",
    "zip_code": 90035,
    "phone": "3108908284",
    "custom_referral_link": "skincareprofessor"
  },
  {
    "name": "IV and ME LLC",
    "address": "2811 W. Agua Fria fwy suite 1, studio 1",
    "city": "Phoenix",
    "state": "Arizona",
    "zip_code": 85381,
    "phone": "9036029161",
    "custom_referral_link": "ivandme"
  },
  {
    "name": "The Stepanyan Clinic, Inc.",
    "address": "15490 Ventura Blvd. #111",
    "city": "Sherman Oaks",
    "state": "CA",
    "zip_code": 91403,
    "phone": "8186409054",
    "custom_referral_link": "stepanyan"
  },
  {
    "name": "Salt and Sky Wellness",
    "address": "580 North Maple Ave, 2nd Floor",
    "city": "Ridgewood",
    "state": "NJ",
    "zip_code": "07450",
    "phone": "2012506840",
    "custom_referral_link": "saltandsky"
  },
  {
    "name": "Gulf Coast Med Spa",
    "address": "3780 Milano Lakes circle , apt 103",
    "city": "Naples",
    "state": "FL",
    "zip_code": 34114,
    "phone": "3862953144",
    "custom_referral_link": "gulfcoast"
  },
  {
    "name": "Gi\u00f3va Aesthetics + Wellness",
    "address": "192 S Main Street",
    "city": "Kaysville",
    "state": "UT",
    "zip_code": 84037,
    "phone": "8018822200",
    "custom_referral_link": "silkeyskin"
  },
  {
    "name": "Facial Artistry and Aesthetics",
    "address": "1745 E SKYLINE DR UNIT 101",
    "city": "Tucson",
    "state": "Arizona",
    "zip_code": 85718,
    "phone": "5207901234",
    "custom_referral_link": "facialartistry"
  },
  {
    "name": "Silkey Skin MD",
    "address": "192 S Main Street",
    "city": "Kaysville",
    "state": "UT",
    "zip_code": 84037,
    "phone": "8018822200",
    "custom_referral_link": "silkeyskin2"
  },
  {
    "name": "Remedy Skin Lab",
    "address": "23373 Camino Terraza Rd",
    "city": "Corona",
    "state": "CA",
    "zip_code": 92883,
    "phone": "9518087713",
    "custom_referral_link": "remedyskin2"
  },
  {
    "name": "Honey Aesthetics Clinic",
    "address": "1700 Plymouth Rd",
    "city": "Minnetonka",
    "state": "Minnesota",
    "zip_code": 55305,
    "phone": "6129632784",
    "custom_referral_link": "honeyaesthetics"
  },
  {
    "name": "A\u00e8re Aesthetics",
    "address": "7400 E Crestline Cir Ste 130",
    "city": "Greenwood Village",
    "state": "Colorado",
    "zip_code": "80111-3655",
    "phone": "303-834-3395",
    "custom_referral_link": "aereaesthetics"
  },
  {
    "name": "Skin Results",
    "address": "5115 N Scottsdale Road #24",
    "city": "Scottsdale",
    "state": "AZ",
    "zip_code": 85250,
    "phone": "6027812197",
    "custom_referral_link": "skinresults"
  },
  {
    "name": "Center for Plastic Surgery",
    "address": "3180 49th St. S.",
    "city": "FARGO",
    "state": "ND",
    "zip_code": 58104,
    "phone": "7014122400",
    "custom_referral_link": "centerforplasticsurgery"
  },
  {
    "name": "Studio of Makeup & Skin Health",
    "address": "9199 Reisterstown Road #104A",
    "city": "Owings Mills",
    "state": "MD",
    "zip_code": 21117,
    "phone": "410-902-7422",
    "custom_referral_link": "studioofmakeup"
  },
  {
    "name": "Beauty Innovations",
    "address": "4268 Lincoln Blvd",
    "city": "Marina del Rey",
    "state": "CA",
    "zip_code": 90292,
    "phone": "3107801602",
    "custom_referral_link": "beautyinnovations"
  },
  {
    "name": "ABK SKIN",
    "address": "500 W Trade St Apt 1001",
    "city": "Charlotte",
    "state": "NC",
    "zip_code": 28202,
    "phone": "8153195076",
    "custom_referral_link": "abkskin"
  },
  {
    "name": "Betsy Kelly Beauty",
    "address": "106 Trofello Ln.",
    "city": "Aliso Viejo",
    "state": "CA",
    "zip_code": 92656,
    "phone": "646-283-6510",
    "custom_referral_link": "betsykelly"
  },
  {
    "name": "Clinical Skin Aesthetics",
    "address": "20301 SW Acacia St suite 100",
    "city": "Newport Beach",
    "state": "CA",
    "zip_code": 92660,
    "phone": "9496878904",
    "custom_referral_link": "clinicalskin"
  },
  {
    "name": "Skin Resolutions",
    "address": "9 West Islay St",
    "city": "Santa Barbara",
    "state": "CA",
    "zip_code": 93101,
    "phone": "8055691923",
    "custom_referral_link": "skinresolutions"
  },
  {
    "name": "OV Aesthetics",
    "address": "9720 Wilshire Blvd, Ste LL",
    "city": "Beverly Hills",
    "state": "CA",
    "zip_code": 90212,
    "phone": "2282189590",
    "custom_referral_link": "ovaesthetics"
  },
  {
    "name": "Caela Esthetics",
    "address": "8453 Melrose Ave, A",
    "city": "West Hollywood",
    "state": "CA",
    "zip_code": 90069,
    "phone": "5202406493",
    "custom_referral_link": "caelaesthetics"
  },
  {
    "name": "Moderne Medical Aesthetics",
    "address": "9180 E Desert Cove Ave Suite 103",
    "city": "Scottsdale",
    "state": "AZ",
    "zip_code": 85260,
    "phone": "4804777726",
    "custom_referral_link": "modernemedical"
  },
  {
    "name": "Lane Beauty Professional",
    "address": "3330 E 1st Ave Loft 36",
    "city": "Cherry Creek, Denver",
    "state": "Colorado",
    "zip_code": 80206,
    "phone": "7205183225",
    "custom_referral_link": "lanebeauty"
  },
  {
    "name": "Personal Use/ SkinLab",
    "address": "18576 East Raven Drive",
    "city": "Queen Creek",
    "state": "AZ",
    "zip_code": 85142,
    "phone": "4802519360",
    "custom_referral_link": "skinlab"
  },
  {
    "name": "No Filter Brazilian Medspa",
    "address": "800 South B street, Suite 300.",
    "city": "San Mateo",
    "state": "CA",
    "zip_code": 94401,
    "phone": "4158028620",
    "custom_referral_link": "nofilter"
  },
  {
    "name": "Dali Aesthetic Collective LLC/ Skin By Dali",
    "address": "124 N Sepulveda Blvd suite 100",
    "city": "Manhattan Beach",
    "state": "CA",
    "zip_code": 90266,
    "phone": "3105970945",
    "custom_referral_link": "dali"
  },
  {
    "name": "Skin By Dali",
    "address": "124 N Sepulveda blvd suite 100",
    "city": "Manhattan beach",
    "state": "California",
    "zip_code": 90266,
    "phone": "3105970945",
    "custom_referral_link": "skinbydali"
  },
  {
    "name": "Kingwood Skin Essentials",
    "address": "350 Kingwood Medical Drive STE 310",
    "city": "KINGWOOD",
    "state": "TEXAS",
    "zip_code": 77339,
    "phone": "832-777-6846",
    "custom_referral_link": "kingwood"
  },
  {
    "name": "Lucent Aesthetics",
    "address": "2831 Shelley Cir",
    "city": "Lincoln",
    "state": "NE",
    "zip_code": 68516,
    "phone": "4025256278",
    "custom_referral_link": "lucent"
  },
  {
    "name": "Chris Panzica",
    "address": null,
    "city": null,
    "state": null,
    "zip_code": null,
    "phone": null,
    "custom_referral_link": null
  },
  {
    "name": "KM AESTHETICS",
    "address": "620 E 17th Avenue",
    "city": "Denver",
    "state": "CO",
    "zip_code": 80203,
    "phone": "7208836041",
    "custom_referral_link": "kmaesthetics"
  },
  {
    "name": "Lux House of Beauty",
    "address": "14327 Ramona blvd",
    "city": "Baldwin Park",
    "state": "CA",
    "zip_code": 91706,
    "phone": "6267410412",
    "custom_referral_link": "luxhouse"
  },
  {
    "name": "LA ViE MD",
    "address": "645 San Ramon Valley Blvd",
    "city": "Danville",
    "state": "California",
    "zip_code": 94526,
    "phone": "8335284310",
    "custom_referral_link": null
  }
]
